{
"type": "FeatureCollection",
"name": "boundaries",
"crs": { "type": "name", "properties": { "name": "urn:ogc:def:crs:OGC:1.3:CRS84" } },
"xy_coordinate_resolution": 1e-06,
"features": [
{ "type": "Feature", "properties": { "name": "Botany Bay Heritage Preserve" }, "geometry": { "type": "Polygon", "coordinates": [ [ [ -80.27914, 32.553547 ], [ -80.279064, 32.553282 ], [ -80.278929, 32.553245 ], [ -80.278577, 32.553719 ], [ -80.278411, 32.553745 ], [ -80.278205, 32.553326 ], [ -80.278217, 32.553061 ], [ -80.278741, 32.552783 ], [ -80.278402, 32.552468 ], [ -80.277821, 32.552729 ], [ -80.277681, 32.552447 ], [ -80.277956, 32.55229 ], [ -80.277722, 32.552086 ], [ -80.277382, 32.551972 ], [ -80.277143, 32.552203 ], [ -80.276591, 32.552449 ], [ -80.276145, 32.552296 ], [ -80.275852, 32.552292 ], [ -80.276359, 32.551805 ], [ -80.275949, 32.551466 ], [ -80.276349, 32.55107 ], [ -80.272601, 32.548419 ], [ -80.262013, 32.540405 ], [ -80.261147, 32.541137 ], [ -80.259857, 32.539509 ], [ -80.259805, 32.53911 ], [ -80.258615, 32.538025 ], [ -80.257974, 32.538568 ], [ -80.257022, 32.537687 ], [ -80.257861, 32.537486 ], [ -80.257657, 32.537335 ], [ -80.257285, 32.537405 ], [ -80.256399, 32.537261 ], [ -80.255856, 32.537028 ], [ -80.255635, 32.536831 ], [ -80.255656, 32.537243 ], [ -80.255499, 32.537411 ], [ -80.255285, 32.537352 ], [ -80.255444, 32.537539 ], [ -80.255379, 32.537649 ], [ -80.255307, 32.53767 ], [ -80.255196, 32.537525 ], [ -80.255015, 32.537627 ], [ -80.255063, 32.537714 ], [ -80.255243, 32.537659 ], [ -80.255268, 32.538013 ], [ -80.255224, 32.537698 ], [ -80.255022, 32.537755 ], [ -80.254965, 32.537618 ], [ -80.255211, 32.537492 ], [ -80.255346, 32.537629 ], [ -80.255396, 32.53753 ], [ -80.255246, 32.537327 ], [ -80.255315, 32.537266 ], [ -80.255514, 32.537362 ], [ -80.255647, 32.537091 ], [ -80.255577, 32.536777 ], [ -80.255253, 32.536291 ], [ -80.255181, 32.535739 ], [ -80.255427, 32.534469 ], [ -80.255819, 32.533679 ], [ -80.255991, 32.533593 ], [ -80.256015, 32.532831 ], [ -80.255923, 32.532438 ], [ -80.255797, 32.532227 ], [ -80.255161, 32.532332 ], [ -80.254562, 32.532299 ], [ -80.254098, 32.532376 ], [ -80.254046, 32.532521 ], [ -80.253478, 32.532611 ], [ -80.252897, 32.5324 ], [ -80.25261, 32.532195 ], [ -80.25258, 32.532009 ], [ -80.252392, 32.531805 ], [ -80.251846, 32.531716 ], [ -80.251303, 32.531741 ], [ -80.250716, 32.532056 ], [ -80.24937, 32.533005 ], [ -80.245936, 32.534743 ], [ -80.245232, 32.534972 ], [ -80.244361, 32.535388 ], [ -80.242709, 32.536324 ], [ -80.24264, 32.536544 ], [ -80.242789, 32.536765 ], [ -80.243203, 32.536745 ], [ -80.24361, 32.536983 ], [ -80.243765, 32.536954 ], [ -80.244267, 32.536551 ], [ -80.245292, 32.536335 ], [ -80.24589, 32.53638 ], [ -80.246362, 32.536603 ], [ -80.246498, 32.536826 ], [ -80.246581, 32.537377 ], [ -80.246525, 32.537554 ], [ -80.246353, 32.537757 ], [ -80.245648, 32.538182 ], [ -80.244466, 32.538386 ], [ -80.242425, 32.539751 ], [ -80.242168, 32.53986 ], [ -80.241112, 32.540034 ], [ -80.240361, 32.540453 ], [ -80.238777, 32.541085 ], [ -80.238622, 32.541321 ], [ -80.238671, 32.541438 ], [ -80.238982, 32.54181 ], [ -80.239244, 32.541933 ], [ -80.239621, 32.541936 ], [ -80.240163, 32.54175 ], [ -80.240521, 32.541723 ], [ -80.240976, 32.54191 ], [ -80.241174, 32.542197 ], [ -80.241157, 32.542541 ], [ -80.240638, 32.543213 ], [ -80.239887, 32.543605 ], [ -80.239836, 32.543808 ], [ -80.23995, 32.544085 ], [ -80.239942, 32.544309 ], [ -80.23979, 32.544514 ], [ -80.239662, 32.544558 ], [ -80.23864, 32.544391 ], [ -80.237966, 32.544726 ], [ -80.237225, 32.544804 ], [ -80.236995, 32.544751 ], [ -80.236857, 32.544533 ], [ -80.236713, 32.54449 ], [ -80.236649, 32.544648 ], [ -80.236697, 32.544748 ], [ -80.236476, 32.544775 ], [ -80.236042, 32.54468 ], [ -80.235798, 32.544753 ], [ -80.236053, 32.544844 ], [ -80.236008, 32.544944 ], [ -80.235828, 32.545027 ], [ -80.235949, 32.545131 ], [ -80.235964, 32.545238 ], [ -80.235799, 32.54511 ], [ -80.235829, 32.544952 ], [ -80.235961, 32.544869 ], [ -80.235723, 32.544758 ], [ -80.235987, 32.544564 ], [ -80.236167, 32.544686 ], [ -80.23646, 32.54473 ], [ -80.236584, 32.544432 ], [ -80.236758, 32.544374 ], [ -80.236854, 32.54439 ], [ -80.237052, 32.544638 ], [ -80.237256, 32.544697 ], [ -80.238094, 32.544577 ], [ -80.238554, 32.544278 ], [ -80.238943, 32.544284 ], [ -80.239523, 32.544422 ], [ -80.239771, 32.544381 ], [ -80.239816, 32.544127 ], [ -80.239699, 32.543787 ], [ -80.239764, 32.543564 ], [ -80.240361, 32.54326 ], [ -80.240599, 32.543055 ], [ -80.240906, 32.542386 ], [ -80.240916, 32.542119 ], [ -80.2406, 32.541965 ], [ -80.239537, 32.542188 ], [ -80.238899, 32.542025 ], [ -80.238626, 32.541839 ], [ -80.2384, 32.541489 ], [ -80.238462, 32.540962 ], [ -80.239012, 32.540618 ], [ -80.239851, 32.540346 ], [ -80.241044, 32.539757 ], [ -80.242358, 32.539485 ], [ -80.244428, 32.538033 ], [ -80.245847, 32.537197 ], [ -80.245884, 32.537023 ], [ -80.24581, 32.536906 ], [ -80.24556, 32.536873 ], [ -80.242962, 32.537399 ], [ -80.242385, 32.537283 ], [ -80.241987, 32.537092 ], [ -80.241549, 32.536679 ], [ -80.241377, 32.536361 ], [ -80.240902, 32.536337 ], [ -80.240083, 32.537105 ], [ -80.239039, 32.537787 ], [ -80.223308, 32.547097 ], [ -80.221809, 32.547792 ], [ -80.2208, 32.54858 ], [ -80.210201, 32.553535 ], [ -80.207954, 32.554406 ], [ -80.206885, 32.554725 ], [ -80.206392, 32.554974 ], [ -80.206153, 32.555424 ], [ -80.206237, 32.555678 ], [ -80.206406, 32.555859 ], [ -80.206703, 32.556006 ], [ -80.207002, 32.55599 ], [ -80.207384, 32.556155 ], [ -80.209357, 32.556117 ], [ -80.209686, 32.555912 ], [ -80.210431, 32.554968 ], [ -80.21091, 32.554821 ], [ -80.211784, 32.554792 ], [ -80.212247, 32.55491 ], [ -80.213129, 32.555552 ], [ -80.213456, 32.555588 ], [ -80.215281, 32.55632 ], [ -80.216193, 32.556592 ], [ -80.216491, 32.556526 ], [ -80.21683, 32.556283 ], [ -80.217265, 32.555551 ], [ -80.217827, 32.555152 ], [ -80.2183, 32.554658 ], [ -80.218798, 32.55431 ], [ -80.220119, 32.553809 ], [ -80.220474, 32.553607 ], [ -80.221017, 32.552809 ], [ -80.221079, 32.552632 ], [ -80.22104, 32.55228 ], [ -80.221375, 32.551844 ], [ -80.221939, 32.551749 ], [ -80.222832, 32.551457 ], [ -80.22296, 32.551269 ], [ -80.223241, 32.551129 ], [ -80.224342, 32.550869 ], [ -80.224734, 32.550897 ], [ -80.225416, 32.550803 ], [ -80.225739, 32.550619 ], [ -80.226062, 32.549938 ], [ -80.226256, 32.549743 ], [ -80.226233, 32.549273 ], [ -80.226344, 32.549099 ], [ -80.226859, 32.54879 ], [ -80.226862, 32.548447 ], [ -80.227019, 32.548782 ], [ -80.226942, 32.548925 ], [ -80.226614, 32.54912 ], [ -80.226528, 32.549365 ], [ -80.226681, 32.549464 ], [ -80.226721, 32.549626 ], [ -80.227159, 32.550126 ], [ -80.227308, 32.550501 ], [ -80.227282, 32.550739 ], [ -80.226898, 32.551545 ], [ -80.226697, 32.551646 ], [ -80.225883, 32.551741 ], [ -80.225354, 32.551979 ], [ -80.225117, 32.55195 ], [ -80.224894, 32.551822 ], [ -80.22471, 32.552085 ], [ -80.224307, 32.552284 ], [ -80.224047, 32.552575 ], [ -80.223838, 32.552683 ], [ -80.223524, 32.552762 ], [ -80.222159, 32.552767 ], [ -80.221684, 32.55288 ], [ -80.221338, 32.553055 ], [ -80.221095, 32.553311 ], [ -80.220816, 32.553858 ], [ -80.220532, 32.553911 ], [ -80.220242, 32.554083 ], [ -80.220155, 32.554251 ], [ -80.219721, 32.554364 ], [ -80.219028, 32.554672 ], [ -80.218381, 32.555137 ], [ -80.217532, 32.555914 ], [ -80.216759, 32.557017 ], [ -80.216211, 32.557361 ], [ -80.216128, 32.557598 ], [ -80.216861, 32.558303 ], [ -80.217311, 32.559115 ], [ -80.217597, 32.560361 ], [ -80.217483, 32.561482 ], [ -80.217385, 32.561733 ], [ -80.217083, 32.562336 ], [ -80.216588, 32.562925 ], [ -80.21558, 32.563401 ], [ -80.214044, 32.56363 ], [ -80.213595, 32.563586 ], [ -80.212682, 32.563301 ], [ -80.211389, 32.562413 ], [ -80.208888, 32.561088 ], [ -80.208446, 32.561072 ], [ -80.207647, 32.561404 ], [ -80.207384, 32.562054 ], [ -80.207345, 32.562811 ], [ -80.207478, 32.563337 ], [ -80.207616, 32.563561 ], [ -80.208237, 32.563953 ], [ -80.208853, 32.564216 ], [ -80.209906, 32.564936 ], [ -80.210147, 32.564972 ], [ -80.210596, 32.564496 ], [ -80.210964, 32.564287 ], [ -80.211433, 32.564162 ], [ -80.21245, 32.564059 ], [ -80.213805, 32.564213 ], [ -80.214712, 32.564481 ], [ -80.215242, 32.564746 ], [ -80.215737, 32.565083 ], [ -80.216309, 32.565645 ], [ -80.217413, 32.566368 ], [ -80.219484, 32.568483 ], [ -80.219944, 32.56904 ], [ -80.220051, 32.569817 ], [ -80.220376, 32.570558 ], [ -80.220804, 32.571009 ], [ -80.221352, 32.571162 ], [ -80.221752, 32.571142 ], [ -80.222238, 32.571001 ], [ -80.223168, 32.57042 ], [ -80.224737, 32.568967 ], [ -80.227129, 32.566572 ], [ -80.227671, 32.565823 ], [ -80.228709, 32.565294 ], [ -80.23084, 32.563618 ], [ -80.230915, 32.563341 ], [ -80.230583, 32.562329 ], [ -80.230578, 32.561546 ], [ -80.230967, 32.560328 ], [ -80.231482, 32.559647 ], [ -80.232203, 32.559208 ], [ -80.233131, 32.558792 ], [ -80.233532, 32.558763 ], [ -80.234661, 32.559042 ], [ -80.235155, 32.559005 ], [ -80.23573, 32.558726 ], [ -80.23581, 32.558481 ], [ -80.235454, 32.557541 ], [ -80.23545, 32.557036 ], [ -80.235704, 32.556694 ], [ -80.236251, 32.556458 ], [ -80.237093, 32.556555 ], [ -80.237626, 32.556808 ], [ -80.238553, 32.5574 ], [ -80.238876, 32.557463 ], [ -80.239531, 32.557743 ], [ -80.239743, 32.557766 ], [ -80.240073, 32.557646 ], [ -80.240243, 32.557442 ], [ -80.240342, 32.557095 ], [ -80.24033, 32.556868 ], [ -80.240106, 32.556665 ], [ -80.239533, 32.556533 ], [ -80.238573, 32.55645 ], [ -80.238025, 32.556522 ], [ -80.237752, 32.556474 ], [ -80.237285, 32.556152 ], [ -80.23717, 32.55594 ], [ -80.237229, 32.555486 ], [ -80.237545, 32.555194 ], [ -80.238016, 32.554989 ], [ -80.238642, 32.554908 ], [ -80.239048, 32.555065 ], [ -80.239558, 32.555119 ], [ -80.241027, 32.554733 ], [ -80.242215, 32.554803 ], [ -80.242478, 32.554676 ], [ -80.242905, 32.554149 ], [ -80.243761, 32.553854 ], [ -80.243988, 32.553941 ], [ -80.24418, 32.554164 ], [ -80.244372, 32.554473 ], [ -80.244437, 32.554824 ], [ -80.244647, 32.554911 ], [ -80.244935, 32.554862 ], [ -80.245104, 32.554763 ], [ -80.245476, 32.554087 ], [ -80.245704, 32.553899 ], [ -80.245705, 32.553705 ], [ -80.245839, 32.553512 ], [ -80.246384, 32.553278 ], [ -80.246825, 32.553248 ], [ -80.247319, 32.553011 ], [ -80.247626, 32.552981 ], [ -80.24828, 32.554307 ], [ -80.248419, 32.554383 ], [ -80.247979, 32.554601 ], [ -80.24798, 32.55521 ], [ -80.2479, 32.555437 ], [ -80.247456, 32.555607 ], [ -80.247184, 32.555804 ], [ -80.246723, 32.555903 ], [ -80.246246, 32.556283 ], [ -80.246182, 32.556552 ], [ -80.245406, 32.557078 ], [ -80.245318, 32.558269 ], [ -80.245125, 32.558712 ], [ -80.245017, 32.558592 ], [ -80.245113, 32.558184 ], [ -80.244983, 32.557992 ], [ -80.243748, 32.557682 ], [ -80.243711, 32.557378 ], [ -80.243487, 32.557206 ], [ -80.243495, 32.557146 ], [ -80.243815, 32.557049 ], [ -80.243754, 32.55662 ], [ -80.24342, 32.556555 ], [ -80.243218, 32.556389 ], [ -80.242088, 32.556197 ], [ -80.241913, 32.555757 ], [ -80.241719, 32.555693 ], [ -80.241284, 32.555703 ], [ -80.240928, 32.555347 ], [ -80.240968, 32.555299 ], [ -80.241186, 32.555375 ], [ -80.241396, 32.555565 ], [ -80.241945, 32.555458 ], [ -80.241968, 32.555392 ], [ -80.24168, 32.555179 ], [ -80.241327, 32.555072 ], [ -80.240851, 32.55512 ], [ -80.240155, 32.555357 ], [ -80.239896, 32.555517 ], [ -80.239743, 32.555743 ], [ -80.239819, 32.555918 ], [ -80.240521, 32.556264 ], [ -80.240774, 32.556539 ], [ -80.240757, 32.557229 ], [ -80.240496, 32.557773 ], [ -80.240281, 32.557975 ], [ -80.239928, 32.558117 ], [ -80.239665, 32.558163 ], [ -80.238974, 32.558103 ], [ -80.238575, 32.557987 ], [ -80.236868, 32.557154 ], [ -80.236315, 32.557037 ], [ -80.236617, 32.558239 ], [ -80.236813, 32.558582 ], [ -80.2369, 32.559305 ], [ -80.236608, 32.559847 ], [ -80.236125, 32.560417 ], [ -80.236572, 32.560366 ], [ -80.237151, 32.56043 ], [ -80.237842, 32.560691 ], [ -80.238199, 32.560929 ], [ -80.238347, 32.56115 ], [ -80.238582, 32.56187 ], [ -80.238856, 32.562105 ], [ -80.239348, 32.562405 ], [ -80.239649, 32.562503 ], [ -80.241074, 32.562765 ], [ -80.242045, 32.562657 ], [ -80.243651, 32.561865 ], [ -80.244062, 32.561314 ], [ -80.243961, 32.559809 ], [ -80.244161, 32.559526 ], [ -80.244709, 32.55914 ], [ -80.245246, 32.559103 ], [ -80.246352, 32.559584 ], [ -80.248897, 32.560154 ], [ -80.250295, 32.560995 ], [ -80.250625, 32.561582 ], [ -80.250898, 32.561765 ], [ -80.251162, 32.562115 ], [ -80.250601, 32.561709 ], [ -80.250857, 32.56227 ], [ -80.251078, 32.562517 ], [ -80.251538, 32.562671 ], [ -80.252239, 32.562035 ], [ -80.252987, 32.561766 ], [ -80.253552, 32.561441 ], [ -80.254094, 32.560911 ], [ -80.254405, 32.561063 ], [ -80.2546, 32.561643 ], [ -80.254745, 32.561776 ], [ -80.255032, 32.561849 ], [ -80.255372, 32.561709 ], [ -80.255624, 32.561691 ], [ -80.256312, 32.561827 ], [ -80.256402, 32.561634 ], [ -80.256044, 32.561281 ], [ -80.255639, 32.561083 ], [ -80.255626, 32.560894 ], [ -80.255693, 32.560845 ], [ -80.256602, 32.560779 ], [ -80.257132, 32.560391 ], [ -80.257273, 32.560171 ], [ -80.257619, 32.560007 ], [ -80.25838, 32.560036 ], [ -80.258753, 32.5595 ], [ -80.259069, 32.559315 ], [ -80.259587, 32.559293 ], [ -80.259937, 32.559391 ], [ -80.260057, 32.55921 ], [ -80.26011, 32.558657 ], [ -80.260495, 32.55879 ], [ -80.260755, 32.558983 ], [ -80.26081, 32.558817 ], [ -80.260735, 32.55861 ], [ -80.260801, 32.558474 ], [ -80.261235, 32.558425 ], [ -80.261746, 32.55853 ], [ -80.261812, 32.558445 ], [ -80.26172, 32.558097 ], [ -80.262106, 32.55815 ], [ -80.262251, 32.557838 ], [ -80.26279, 32.55782 ], [ -80.262732, 32.557876 ], [ -80.262298, 32.557894 ], [ -80.262135, 32.55821 ], [ -80.261785, 32.558133 ], [ -80.261883, 32.558491 ], [ -80.261775, 32.558575 ], [ -80.261205, 32.558477 ], [ -80.260878, 32.55851 ], [ -80.260824, 32.558545 ], [ -80.260904, 32.558913 ], [ -80.260814, 32.559048 ], [ -80.260186, 32.558733 ], [ -80.260168, 32.559186 ], [ -80.260038, 32.559412 ], [ -80.259901, 32.559461 ], [ -80.259146, 32.559406 ], [ -80.258931, 32.559486 ], [ -80.258781, 32.559651 ], [ -80.258524, 32.560243 ], [ -80.259801, 32.562082 ], [ -80.260332, 32.562585 ], [ -80.263051, 32.566557 ], [ -80.263375, 32.566943 ], [ -80.26429, 32.567181 ], [ -80.264328, 32.567029 ], [ -80.264877, 32.566974 ], [ -80.266534, 32.566149 ], [ -80.267398, 32.565594 ], [ -80.270966, 32.562588 ], [ -80.274744, 32.560463 ], [ -80.27631, 32.55983 ], [ -80.273815, 32.554997 ], [ -80.27334, 32.554686 ], [ -80.27307, 32.554626 ], [ -80.272849, 32.554677 ], [ -80.272648, 32.554847 ], [ -80.272255, 32.554853 ], [ -80.272231, 32.555223 ], [ -80.272033, 32.555264 ], [ -80.271695, 32.555172 ], [ -80.271476, 32.555195 ], [ -80.271328, 32.555321 ], [ -80.271181, 32.555788 ], [ -80.271091, 32.555666 ], [ -80.270643, 32.555506 ], [ -80.270436, 32.555862 ], [ -80.270088, 32.555902 ], [ -80.269537, 32.556148 ], [ -80.269284, 32.556152 ], [ -80.269732, 32.555952 ], [ -80.270399, 32.555804 ], [ -80.270625, 32.555427 ], [ -80.271164, 32.555599 ], [ -80.271395, 32.555163 ], [ -80.271646, 32.555112 ], [ -80.271871, 32.555191 ], [ -80.272146, 32.555181 ], [ -80.272106, 32.554923 ], [ -80.27219, 32.554787 ], [ -80.272616, 32.554735 ], [ -80.272443, 32.55431 ], [ -80.272753, 32.554622 ], [ -80.273178, 32.554569 ], [ -80.273642, 32.554764 ], [ -80.27381, 32.554711 ], [ -80.273818, 32.554822 ], [ -80.274104, 32.554773 ], [ -80.275402, 32.555004 ], [ -80.275891, 32.554932 ], [ -80.27632, 32.554992 ], [ -80.277534, 32.555827 ], [ -80.277813, 32.555895 ], [ -80.277894, 32.555534 ], [ -80.277805, 32.555106 ], [ -80.277885, 32.554889 ], [ -80.278234, 32.554801 ], [ -80.278687, 32.555087 ], [ -80.278922, 32.555082 ], [ -80.278852, 32.554967 ], [ -80.278256, 32.554699 ], [ -80.278165, 32.554523 ], [ -80.278273, 32.554386 ], [ -80.278457, 32.554441 ], [ -80.278567, 32.554382 ], [ -80.278782, 32.553894 ], [ -80.278425, 32.553977 ], [ -80.278498, 32.553863 ], [ -80.278016, 32.553649 ], [ -80.278044, 32.553607 ], [ -80.278541, 32.553809 ], [ -80.278832, 32.553829 ], [ -80.27914, 32.553547 ] ] ] } },
{ "type": "Feature", "properties": { "name": "Edisto Beach State Park" }, "geometry": { "type": "Polygon", "coordinates": [ [ [ -80.330027, 32.506704 ], [ -80.328949, 32.505999 ], [ -80.326957, 32.505346 ], [ -80.326223, 32.504862 ], [ -80.325029, 32.503795 ], [ -80.324568, 32.503229 ], [ -80.324289, 32.502653 ], [ -80.324075, 32.501871 ], [ -80.323978, 32.500975 ], [ -80.324196, 32.500189 ], [ -80.325117, 32.497727 ], [ -80.32618, 32.49359 ], [ -80.325045, 32.493724 ], [ -80.323904, 32.494489 ], [ -80.323352, 32.494978 ], [ -80.323086, 32.495506 ], [ -80.322457, 32.496285 ], [ -80.321341, 32.496665 ], [ -80.320847, 32.497084 ], [ -80.32077, 32.498096 ], [ -80.320023, 32.499003 ], [ -80.319368, 32.499392 ], [ -80.317758, 32.499447 ], [ -80.317409, 32.499951 ], [ -80.317488, 32.500514 ], [ -80.318523, 32.501675 ], [ -80.317923, 32.502151 ], [ -80.317255, 32.502263 ], [ -80.316672, 32.502464 ], [ -80.316599, 32.502934 ], [ -80.316891, 32.503763 ], [ -80.317274, 32.504374 ], [ -80.316768, 32.504607 ], [ -80.316448, 32.504395 ], [ -80.316232, 32.50408 ], [ -80.316197, 32.503664 ], [ -80.315508, 32.503206 ], [ -80.313799, 32.503923 ], [ -80.310058, 32.50456 ], [ -80.309729, 32.504503 ], [ -80.308946, 32.503705 ], [ -80.308359, 32.503743 ], [ -80.308079, 32.503883 ], [ -80.308093, 32.505055 ], [ -80.307625, 32.505083 ], [ -80.306764, 32.504048 ], [ -80.306381, 32.503755 ], [ -80.305887, 32.503771 ], [ -80.305749, 32.504329 ], [ -80.306244, 32.504389 ], [ -80.306593, 32.504759 ], [ -80.305824, 32.504823 ], [ -80.304903, 32.505447 ], [ -80.304411, 32.505385 ], [ -80.304805, 32.504734 ], [ -80.303658, 32.504649 ], [ -80.303405, 32.505094 ], [ -80.302886, 32.505187 ], [ -80.302732, 32.505497 ], [ -80.303522, 32.506251 ], [ -80.303021, 32.506464 ], [ -80.302692, 32.506795 ], [ -80.302354, 32.506965 ], [ -80.302027, 32.506707 ], [ -80.302252, 32.506334 ], [ -80.302058, 32.506104 ], [ -80.301687, 32.50658 ], [ -80.301274, 32.506843 ], [ -80.300913, 32.506891 ], [ -80.300871, 32.506681 ], [ -80.301044, 32.506484 ], [ -80.301112, 32.50608 ], [ -80.301027, 32.505647 ], [ -80.300372, 32.505497 ], [ -80.300001, 32.505551 ], [ -80.299653, 32.50572 ], [ -80.299031, 32.505457 ], [ -80.29866, 32.505808 ], [ -80.298451, 32.505842 ], [ -80.298395, 32.505695 ], [ -80.298665, 32.505408 ], [ -80.298683, 32.504577 ], [ -80.298357, 32.504335 ], [ -80.29814, 32.504885 ], [ -80.297914, 32.505134 ], [ -80.29754, 32.505196 ], [ -80.296534, 32.503696 ], [ -80.296452, 32.503412 ], [ -80.296363, 32.503376 ], [ -80.296127, 32.503568 ], [ -80.295986, 32.50344 ], [ -80.288176, 32.509858 ], [ -80.285586, 32.511801 ], [ -80.282116, 32.51416 ], [ -80.278791, 32.516221 ], [ -80.278346, 32.516696 ], [ -80.278249, 32.517166 ], [ -80.27863, 32.517808 ], [ -80.278976, 32.517927 ], [ -80.279369, 32.517837 ], [ -80.280187, 32.517385 ], [ -80.28083, 32.517381 ], [ -80.281156, 32.517567 ], [ -80.281609, 32.518233 ], [ -80.28189, 32.518464 ], [ -80.282656, 32.518614 ], [ -80.282833, 32.518558 ], [ -80.283141, 32.518231 ], [ -80.283237, 32.517604 ], [ -80.283091, 32.516561 ], [ -80.28275, 32.516191 ], [ -80.282635, 32.515885 ], [ -80.28278, 32.515593 ], [ -80.282922, 32.515494 ], [ -80.283629, 32.515212 ], [ -80.284857, 32.514469 ], [ -80.286447, 32.514384 ], [ -80.287407, 32.514066 ], [ -80.288667, 32.513873 ], [ -80.288711, 32.513797 ], [ -80.288355, 32.513329 ], [ -80.288297, 32.513022 ], [ -80.288437, 32.512852 ], [ -80.288939, 32.512592 ], [ -80.289716, 32.512459 ], [ -80.289962, 32.512294 ], [ -80.290186, 32.512305 ], [ -80.290419, 32.512455 ], [ -80.290537, 32.5128 ], [ -80.290654, 32.512868 ], [ -80.291873, 32.512274 ], [ -80.292409, 32.511523 ], [ -80.292795, 32.511448 ], [ -80.293606, 32.511659 ], [ -80.293936, 32.511637 ], [ -80.29399, 32.511533 ], [ -80.293887, 32.511396 ], [ -80.293176, 32.511102 ], [ -80.293013, 32.510873 ], [ -80.293117, 32.510581 ], [ -80.293515, 32.510282 ], [ -80.29353, 32.510183 ], [ -80.293064, 32.509974 ], [ -80.292824, 32.509679 ], [ -80.292888, 32.50943 ], [ -80.293118, 32.50929 ], [ -80.298668, 32.513766 ], [ -80.299734, 32.514997 ], [ -80.299888, 32.515062 ], [ -80.299971, 32.521035 ], [ -80.30271, 32.519225 ], [ -80.31107, 32.513408 ], [ -80.311395, 32.513732 ], [ -80.312297, 32.513561 ], [ -80.319118, 32.511164 ], [ -80.325062, 32.508865 ], [ -80.326867, 32.510395 ], [ -80.330027, 32.506704 ] ] ] } }
]
}
