{
"type": "FeatureCollection",
"name": "shorelines_historic",
"crs": { "type": "name", "properties": { "name": "urn:ogc:def:crs:OGC:1.3:CRS84" } },
"xy_coordinate_resolution": 1e-06,
"features": [
{ "type": "Feature", "properties": { "year": 2000, "source": "USGS lidar", "uncertainty_m": 0.0 }, "geometry": { "type": "LineString", "coordinates": [ [ -80.339222, 32.479392 ], [ -80.33905, 32.479196 ], [ -80.338924, 32.478808 ], [ -80.337927, 32.478434 ], [ -80.337542, 32.478221 ], [ -80.336527, 32.477923 ], [ -80.336386, 32.477598 ], [ -80.336156, 32.477653 ], [ -80.335099, 32.477759 ], [ -80.334853, 32.477661 ], [ -80.333837, 32.477938 ], [ -80.333627, 32.477968 ], [ -80.333403, 32.477951 ], [ -80.332609, 32.478239 ], [ -80.332384, 32.478216 ], [ -80.332198, 32.478335 ], [ -80.331627, 32.478575 ], [ -80.331412, 32.478637 ], [ -80.330659, 32.478997 ], [ -80.329763, 32.479492 ], [ -80.329112, 32.479956 ], [ -80.32859, 32.480271 ], [ -80.328306, 32.480262 ], [ -80.328231, 32.48047 ], [ -80.3272, 32.481111 ], [ -80.326919, 32.481389 ], [ -80.3254, 32.48238 ], [ -80.325381, 32.482645 ], [ -80.32508, 32.482902 ], [ -80.323772, 32.483828 ], [ -80.322887, 32.484335 ], [ -80.322786, 32.484515 ], [ -80.32263, 32.484638 ], [ -80.321593, 32.485274 ], [ -80.321046, 32.485562 ], [ -80.320912, 32.485707 ], [ -80.320744, 32.48582 ], [ -80.31913, 32.48671 ], [ -80.318811, 32.48695 ], [ -80.31775, 32.48756 ], [ -80.317456, 32.487826 ], [ -80.316769, 32.488254 ], [ -80.316404, 32.488445 ], [ -80.316342, 32.488666 ], [ -80.316192, 32.488796 ], [ -80.314849, 32.489684 ], [ -80.314662, 32.489776 ], [ -80.314569, 32.489963 ], [ -80.314411, 32.490085 ], [ -80.313388, 32.490735 ], [ -80.313372, 32.491004 ], [ -80.313073, 32.491262 ], [ -80.31187, 32.492011 ], [ -80.311766, 32.492189 ], [ -80.311481, 32.492463 ], [ -80.310478, 32.493133 ], [ -80.310218, 32.493434 ], [ -80.309904, 32.493678 ], [ -80.30906, 32.494228 ], [ -80.308608, 32.494615 ], [ -80.307565, 32.495245 ], [ -80.307289, 32.495528 ], [ -80.306101, 32.496292 ], [ -80.305828, 32.49658 ], [ -80.305665, 32.496696 ], [ -80.304646, 32.497349 ], [ -80.303822, 32.497921 ], [ -80.303116, 32.498329 ], [ -80.3023, 32.498909 ], [ -80.30179, 32.499234 ], [ -80.301238, 32.499518 ], [ -80.300389, 32.500063 ], [ -80.299852, 32.500361 ], [ -80.299739, 32.50053 ], [ -80.29958, 32.500649 ], [ -80.298723, 32.501185 ], [ -80.298355, 32.501375 ], [ -80.29806, 32.50164 ], [ -80.297387, 32.502082 ], [ -80.296842, 32.502371 ], [ -80.296727, 32.502538 ], [ -80.296569, 32.502659 ], [ -80.295375, 32.503417 ], [ -80.295355, 32.50368 ], [ -80.295094, 32.503981 ], [ -80.29288, 32.505676 ], [ -80.289982, 32.508082 ], [ -80.288473, 32.509367 ], [ -80.288341, 32.509513 ], [ -80.287555, 32.510124 ], [ -80.287236, 32.510362 ], [ -80.286721, 32.510685 ], [ -80.285147, 32.511902 ], [ -80.284461, 32.512332 ], [ -80.282971, 32.513353 ], [ -80.280931, 32.51466 ], [ -80.280564, 32.514851 ], [ -80.278287, 32.5162 ], [ -80.278124, 32.516317 ], [ -80.277848, 32.516599 ], [ -80.277733, 32.516764 ], [ -80.277704, 32.517016 ] ] } },
{ "type": "Feature", "properties": { "year": 2000, "source": "USGS lidar", "uncertainty_m": 0.0 }, "geometry": { "type": "LineString", "coordinates": [ [ -80.277235, 32.517385 ], [ -80.27697, 32.517397 ], [ -80.276491, 32.517474 ], [ -80.276286, 32.517547 ], [ -80.275737, 32.517835 ], [ -80.27384, 32.519007 ], [ -80.271289, 32.520644 ], [ -80.26904, 32.522017 ], [ -80.266587, 32.523453 ], [ -80.263711, 32.525001 ], [ -80.261518, 32.526117 ], [ -80.259664, 32.527009 ], [ -80.258578, 32.52758 ], [ -80.256658, 32.52872 ], [ -80.255811, 32.529271 ], [ -80.255661, 32.529406 ], [ -80.25478, 32.529912 ], [ -80.254624, 32.53004 ], [ -80.2545, 32.53021 ], [ -80.25421, 32.530494 ], [ -80.253972, 32.530845 ] ] } },
{ "type": "Feature", "properties": { "year": 2000, "source": "USGS lidar", "uncertainty_m": 0.0 }, "geometry": { "type": "LineString", "coordinates": [ [ -80.251595, 32.53139 ], [ -80.251336, 32.531384 ], [ -80.25113, 32.531446 ], [ -80.250569, 32.531708 ], [ -80.24657, 32.534111 ], [ -80.245852, 32.534499 ], [ -80.245078, 32.534815 ], [ -80.243432, 32.535649 ], [ -80.243074, 32.535845 ], [ -80.242757, 32.536093 ] ] } },
{ "type": "Feature", "properties": { "year": 2000, "source": "USGS lidar", "uncertainty_m": 0.0 }, "geometry": { "type": "LineString", "coordinates": [ [ -80.242837, 32.537518 ], [ -80.242543, 32.537467 ], [ -80.242062, 32.537172 ], [ -80.241754, 32.537102 ], [ -80.241091, 32.537231 ], [ -80.2407, 32.537385 ], [ -80.240523, 32.537486 ], [ -80.239548, 32.5382 ], [ -80.236888, 32.539699 ], [ -80.234111, 32.541376 ], [ -80.233215, 32.541864 ], [ -80.229899, 32.543831 ], [ -80.227759, 32.545016 ], [ -80.225139, 32.546567 ], [ -80.223635, 32.547586 ], [ -80.223003, 32.548086 ], [ -80.222667, 32.54831 ], [ -80.222217, 32.548717 ], [ -80.221722, 32.549065 ], [ -80.220148, 32.549994 ], [ -80.219048, 32.550546 ], [ -80.217339, 32.551299 ], [ -80.214649, 32.552099 ], [ -80.211641, 32.553098 ], [ -80.20943, 32.553778 ], [ -80.209244, 32.553867 ], [ -80.209035, 32.553913 ], [ -80.208244, 32.554185 ], [ -80.205891, 32.555031 ], [ -80.204936, 32.555434 ], [ -80.204383, 32.55571 ], [ -80.202589, 32.556721 ], [ -80.200891, 32.557481 ], [ -80.20012, 32.557789 ], [ -80.19754, 32.558652 ], [ -80.196574, 32.559031 ], [ -80.196234, 32.559269 ], [ -80.196099, 32.55945 ], [ -80.195374, 32.559843 ], [ -80.195, 32.560127 ] ] } },
{ "type": "Feature", "properties": { "year": 2000, "source": "USGS lidar", "uncertainty_m": 0.0 }, "geometry": { "type": "LineString", "coordinates": [ [ -80.195071, 32.565747 ], [ -80.195053, 32.565282 ], [ -80.195, 32.565154 ] ] } },
{ "type": "Feature", "properties": { "year": 1921, "source": "NOAA/NOS CERC map", "uncertainty_m": 10.8 }, "geometry": { "type": "LineString", "coordinates": [ [ -80.236278, 32.53485 ], [ -80.237026, 32.534525 ], [ -80.238018, 32.533942 ], [ -80.238155, 32.5339 ], [ -80.238796, 32.533572 ], [ -80.239086, 32.533343 ], [ -80.239406, 32.533145 ], [ -80.240284, 32.532847 ], [ -80.240848, 32.532725 ], [ -80.240947, 32.532675 ], [ -80.241291, 32.532656 ], [ -80.241596, 32.532691 ], [ -80.242504, 32.53284 ], [ -80.242702, 32.532954 ], [ -80.243152, 32.533339 ], [ -80.24332, 32.533698 ], [ -80.243318, 32.534073 ] ] } },
{ "type": "Feature", "properties": { "year": 1921, "source": "NOAA/NOS CERC map", "uncertainty_m": 10.8 }, "geometry": { "type": "LineString", "coordinates": [ [ -80.244512, 32.532785 ], [ -80.244442, 32.532714 ], [ -80.244632, 32.532462 ], [ -80.244655, 32.532363 ], [ -80.244785, 32.532141 ], [ -80.244999, 32.531905 ], [ -80.245243, 32.53152 ], [ -80.245395, 32.531344 ], [ -80.246013, 32.530299 ], [ -80.246265, 32.530097 ], [ -80.246723, 32.52986 ], [ -80.247173, 32.529685 ], [ -80.247448, 32.529517 ], [ -80.248424, 32.529189 ], [ -80.249119, 32.528876 ], [ -80.24937, 32.52872 ], [ -80.250004, 32.52843 ], [ -80.250721, 32.528037 ], [ -80.252231, 32.527328 ], [ -80.252293, 32.527259 ], [ -80.253002, 32.526904 ], [ -80.25317, 32.526786 ], [ -80.253979, 32.526412 ], [ -80.254383, 32.52613 ], [ -80.25526, 32.525718 ], [ -80.255337, 32.525642 ], [ -80.255901, 32.525302 ], [ -80.256123, 32.525272 ], [ -80.25713, 32.524783 ], [ -80.257458, 32.524673 ], [ -80.257748, 32.524486 ], [ -80.25806, 32.52436 ], [ -80.258366, 32.524158 ], [ -80.258488, 32.524131 ], [ -80.258678, 32.52402 ], [ -80.259052, 32.523898 ], [ -80.259136, 32.523841 ], [ -80.259358, 32.52383 ], [ -80.259518, 32.523833 ], [ -80.259632, 32.523868 ], [ -80.259724, 32.523963 ], [ -80.25967, 32.524158 ] ] } },
{ "type": "Feature", "properties": { "year": 1921, "source": "NOAA/NOS CERC map", "uncertainty_m": 10.8 }, "geometry": { "type": "LineString", "coordinates": [ [ -80.261128, 32.523425 ], [ -80.260838, 32.523277 ], [ -80.26083, 32.523128 ], [ -80.260929, 32.522941 ], [ -80.261135, 32.522804 ], [ -80.261852, 32.522464 ], [ -80.262249, 32.522258 ], [ -80.262341, 32.522182 ], [ -80.26318, 32.521785 ], [ -80.263294, 32.521705 ], [ -80.263737, 32.521514 ], [ -80.264294, 32.521171 ], [ -80.264439, 32.521125 ], [ -80.265187, 32.520694 ], [ -80.265972, 32.520339 ], [ -80.266545, 32.519992 ], [ -80.267277, 32.51966 ], [ -80.268116, 32.519226 ], [ -80.268811, 32.518764 ], [ -80.269329, 32.518508 ], [ -80.269459, 32.518405 ], [ -80.270848, 32.517746 ], [ -80.271305, 32.517582 ], [ -80.271534, 32.517597 ], [ -80.271824, 32.51765 ], [ -80.272046, 32.517761 ], [ -80.272282, 32.517814 ], [ -80.272747, 32.517978 ], [ -80.272938, 32.517974 ], [ -80.273396, 32.517868 ], [ -80.273617, 32.517772 ], [ -80.273648, 32.51773 ] ] } },
{ "type": "Feature", "properties": { "year": 1921, "source": "NOAA/NOS CERC map", "uncertainty_m": 10.8 }, "geometry": { "type": "LineString", "coordinates": [ [ -80.27431, 32.516386 ], [ -80.27422, 32.516353 ], [ -80.274197, 32.516269 ], [ -80.274479, 32.516002 ], [ -80.275334, 32.515503 ], [ -80.275761, 32.51519 ], [ -80.27631, 32.514942 ], [ -80.276494, 32.514789 ], [ -80.277119, 32.514515 ], [ -80.277638, 32.514148 ], [ -80.27773, 32.514122 ], [ -80.278164, 32.513847 ], [ -80.278592, 32.513641 ], [ -80.278813, 32.513466 ], [ -80.279255, 32.513222 ], [ -80.279355, 32.513122 ], [ -80.279645, 32.512943 ], [ -80.279873, 32.512867 ], [ -80.280392, 32.512497 ], [ -80.281575, 32.51181 ], [ -80.281911, 32.511555 ], [ -80.282475, 32.51131 ], [ -80.283147, 32.510879 ] ] } },
{ "type": "Feature", "properties": { "year": 1921, "source": "NOAA/NOS CERC map", "uncertainty_m": 10.8 }, "geometry": { "type": "MultiLineString", "coordinates": [ [ [ -80.202666, 32.569384 ], [ -80.202235, 32.56947 ], [ -80.20164, 32.569463 ], [ -80.200434, 32.569554 ], [ -80.199458, 32.569428 ], [ -80.199046, 32.569325 ], [ -80.198519, 32.569131 ], [ -80.197802, 32.568768 ], [ -80.197421, 32.56852 ], [ -80.197161, 32.568242 ], [ -80.196841, 32.567971 ], [ -80.196078, 32.567395 ], [ -80.195681, 32.566972 ], [ -80.195208, 32.566583 ], [ -80.195, 32.566353 ] ], [ [ -80.195, 32.556069 ], [ -80.195239, 32.555902 ], [ -80.195391, 32.555841 ], [ -80.196185, 32.555269 ], [ -80.196597, 32.555032 ], [ -80.196803, 32.554876 ], [ -80.197299, 32.554326 ], [ -80.197787, 32.553575 ], [ -80.198161, 32.55309 ], [ -80.19826, 32.553003 ], [ -80.19858, 32.552778 ], [ -80.198985, 32.552419 ], [ -80.199252, 32.552244 ], [ -80.199847, 32.551752 ], [ -80.200312, 32.551542 ], [ -80.200724, 32.551248 ], [ -80.201281, 32.550916 ], [ -80.201731, 32.550691 ], [ -80.202098, 32.550573 ], [ -80.202647, 32.550325 ], [ -80.203196, 32.550123 ], [ -80.203723, 32.549856 ], [ -80.204333, 32.549646 ], [ -80.204554, 32.549539 ], [ -80.20489, 32.549448 ], [ -80.205767, 32.54904 ], [ -80.206797, 32.548677 ], [ -80.207835, 32.548258 ], [ -80.207995, 32.548162 ], [ -80.209475, 32.547617 ], [ -80.209987, 32.547327 ], [ -80.210269, 32.547197 ], [ -80.210414, 32.547167 ], [ -80.210872, 32.546919 ], [ -80.211436, 32.54672 ], [ -80.212535, 32.546202 ], [ -80.213077, 32.545988 ], [ -80.213138, 32.545927 ], [ -80.213389, 32.545839 ], [ -80.213817, 32.545603 ], [ -80.214099, 32.545507 ], [ -80.215701, 32.544809 ], [ -80.216388, 32.544577 ], [ -80.216975, 32.544332 ], [ -80.21757, 32.544031 ], [ -80.219272, 32.543303 ], [ -80.220073, 32.543016 ], [ -80.220332, 32.542898 ], [ -80.220691, 32.542673 ], [ -80.220935, 32.542612 ], [ -80.221912, 32.542147 ], [ -80.22227, 32.542025 ], [ -80.22253, 32.541857 ], [ -80.222789, 32.541739 ], [ -80.222842, 32.54167 ], [ -80.222972, 32.541639 ], [ -80.223422, 32.541437 ], [ -80.224094, 32.541014 ], [ -80.224612, 32.540793 ], [ -80.225459, 32.540312 ], [ -80.227779, 32.539267 ], [ -80.228389, 32.538882 ], [ -80.228908, 32.538641 ], [ -80.229389, 32.538359 ], [ -80.230716, 32.537722 ], [ -80.231159, 32.537543 ], [ -80.232623, 32.536719 ], [ -80.233776, 32.53612 ], [ -80.234081, 32.536005 ], [ -80.23476, 32.535616 ], [ -80.236278, 32.53485 ] ] ] } },
{ "type": "Feature", "properties": { "year": 1852, "source": "NOAA/NOS CERC map", "uncertainty_m": 10.8 }, "geometry": { "type": "LineString", "coordinates": [ [ -80.34233, 32.489519 ], [ -80.342528, 32.489961 ], [ -80.342764, 32.490686 ], [ -80.343031, 32.49207 ], [ -80.343085, 32.4926 ], [ -80.343031, 32.492955 ], [ -80.342909, 32.493306 ], [ -80.342657, 32.493825 ], [ -80.342451, 32.494012 ], [ -80.342284, 32.494039 ], [ -80.342106, 32.493989 ] ] } },
{ "type": "Feature", "properties": { "year": 1852, "source": "NOAA/NOS CERC map", "uncertainty_m": 10.8 }, "geometry": { "type": "LineString", "coordinates": [ [ -80.2832, 32.509575 ], [ -80.283597, 32.509457 ], [ -80.284215, 32.508999 ], [ -80.284932, 32.508572 ], [ -80.285405, 32.508343 ], [ -80.286176, 32.507835 ], [ -80.286488, 32.507576 ], [ -80.286763, 32.507397 ], [ -80.287938, 32.506695 ], [ -80.289197, 32.505753 ], [ -80.29205, 32.503964 ], [ -80.292546, 32.50367 ], [ -80.293309, 32.503342 ], [ -80.293714, 32.503083 ], [ -80.294835, 32.502533 ], [ -80.295575, 32.502102 ], [ -80.295835, 32.501908 ], [ -80.296048, 32.50182 ], [ -80.297055, 32.501282 ], [ -80.29762, 32.500874 ], [ -80.299131, 32.500042 ], [ -80.300252, 32.499306 ], [ -80.301328, 32.498639 ], [ -80.30203, 32.498246 ], [ -80.302686, 32.497811 ], [ -80.303426, 32.49741 ], [ -80.304372, 32.496827 ], [ -80.304593, 32.496728 ], [ -80.305562, 32.495919 ], [ -80.306348, 32.49537 ], [ -80.30692, 32.4949 ], [ -80.307348, 32.49463 ], [ -80.308195, 32.493844 ], [ -80.308904, 32.493512 ], [ -80.310056, 32.492722 ], [ -80.310743, 32.492181 ], [ -80.310827, 32.492074 ], [ -80.311475, 32.491502 ], [ -80.312078, 32.491048 ], [ -80.313207, 32.490315 ], [ -80.313642, 32.489976 ], [ -80.314123, 32.489656 ], [ -80.315038, 32.489141 ], [ -80.315962, 32.488397 ], [ -80.317129, 32.487596 ], [ -80.318838, 32.48665 ], [ -80.319151, 32.48652 ], [ -80.319517, 32.486276 ], [ -80.319807, 32.486142 ], [ -80.320692, 32.485559 ], [ -80.321302, 32.485204 ], [ -80.322042, 32.484868 ], [ -80.323095, 32.484468 ], [ -80.326056, 32.483613 ], [ -80.326742, 32.483491 ], [ -80.328634, 32.483056 ], [ -80.329092, 32.4829 ], [ -80.330374, 32.482564 ], [ -80.331076, 32.482442 ], [ -80.33164, 32.482164 ], [ -80.332373, 32.481946 ], [ -80.333121, 32.481683 ], [ -80.333533, 32.481527 ], [ -80.334051, 32.481279 ], [ -80.334631, 32.481218 ], [ -80.334967, 32.481138 ], [ -80.335455, 32.481077 ], [ -80.335837, 32.481088 ], [ -80.336142, 32.481149 ], [ -80.336447, 32.481237 ], [ -80.336851, 32.481401 ], [ -80.337256, 32.481657 ], [ -80.3384, 32.482656 ], [ -80.339064, 32.483331 ], [ -80.339339, 32.483674 ], [ -80.33959, 32.483911 ], [ -80.339766, 32.484167 ], [ -80.340269, 32.484697 ], [ -80.34043, 32.484964 ], [ -80.340811, 32.485437 ], [ -80.341513, 32.486554 ], [ -80.341727, 32.486966 ], [ -80.342429, 32.488496 ], [ -80.342558, 32.488881 ], [ -80.34265, 32.489446 ] ] } },
{ "type": "Feature", "properties": { "year": 1933, "source": "NOAA T05156", "uncertainty_m": 10.8 }, "geometry": { "type": "LineString", "coordinates": [ [ -80.311746, 32.492077 ], [ -80.312815, 32.491327 ], [ -80.314038, 32.490327 ], [ -80.314699, 32.489897 ], [ -80.314957, 32.48965 ], [ -80.31606, 32.48882 ], [ -80.317354, 32.487998 ], [ -80.317952, 32.487529 ], [ -80.320403, 32.485978 ], [ -80.322544, 32.484471 ], [ -80.325317, 32.482612 ], [ -80.326832, 32.481691 ], [ -80.327346, 32.481322 ], [ -80.328273, 32.480746 ], [ -80.328622, 32.480492 ], [ -80.329072, 32.480262 ], [ -80.329513, 32.47997 ], [ -80.329651, 32.479839 ], [ -80.329734, 32.4797 ], [ -80.330092, 32.479478 ], [ -80.330854, 32.478924 ], [ -80.331149, 32.478608 ], [ -80.331958, 32.478016 ], [ -80.332343, 32.47777 ], [ -80.333791, 32.477259 ], [ -80.334239, 32.477215 ], [ -80.334723, 32.477241 ], [ -80.335115, 32.477313 ], [ -80.335584, 32.477455 ], [ -80.336604, 32.477971 ], [ -80.33762, 32.478414 ], [ -80.338593, 32.478938 ], [ -80.338907, 32.479199 ], [ -80.339433, 32.479732 ], [ -80.340103, 32.480611 ], [ -80.340391, 32.481093 ], [ -80.341098, 32.482564 ], [ -80.342175, 32.485265 ], [ -80.342407, 32.485944 ], [ -80.342539, 32.486723 ], [ -80.342674, 32.486956 ], [ -80.342857, 32.487542 ], [ -80.343664, 32.489048 ], [ -80.343888, 32.489739 ], [ -80.344472, 32.490985 ], [ -80.345186, 32.492723 ], [ -80.345311, 32.493224 ], [ -80.345473, 32.494169 ], [ -80.345469, 32.494742 ], [ -80.345444, 32.494998 ], [ -80.345342, 32.495179 ], [ -80.345139, 32.49543 ], [ -80.34493, 32.495575 ] ] } },
{ "type": "Feature", "properties": { "year": 1970, "source": "NOAA TP00270", "uncertainty_m": 5.1 }, "geometry": { "type": "LineString", "coordinates": [ [ -80.300111, 32.500157 ], [ -80.300534, 32.499855 ], [ -80.302323, 32.498848 ], [ -80.30274, 32.498509 ], [ -80.302994, 32.498344 ], [ -80.303346, 32.498174 ], [ -80.303939, 32.497818 ], [ -80.30667, 32.495863 ], [ -80.309259, 32.49411 ], [ -80.309393, 32.493951 ], [ -80.311032, 32.492762 ], [ -80.311704, 32.492075 ], [ -80.312323, 32.491676 ], [ -80.312969, 32.491154 ], [ -80.313387, 32.490658 ], [ -80.314028, 32.490255 ], [ -80.314363, 32.49 ], [ -80.314592, 32.489744 ], [ -80.314704, 32.489661 ], [ -80.315533, 32.489134 ], [ -80.316106, 32.488688 ], [ -80.316235, 32.488493 ], [ -80.316334, 32.488403 ], [ -80.316919, 32.487996 ], [ -80.317349, 32.487758 ], [ -80.319047, 32.486665 ], [ -80.319489, 32.48647 ], [ -80.320286, 32.486177 ], [ -80.321185, 32.485576 ], [ -80.321717, 32.485313 ], [ -80.322701, 32.48468 ], [ -80.323837, 32.483829 ], [ -80.324779, 32.483054 ], [ -80.325119, 32.482813 ], [ -80.325476, 32.482496 ], [ -80.326173, 32.481969 ], [ -80.326771, 32.48158 ], [ -80.327266, 32.481134 ], [ -80.32845, 32.48046 ], [ -80.32855, 32.480457 ], [ -80.32879, 32.48035 ], [ -80.330022, 32.479705 ], [ -80.330739, 32.479372 ], [ -80.331252, 32.479048 ], [ -80.33194, 32.47869 ] ] } },
{ "type": "Feature", "properties": { "year": 1970, "source": "NOAA TP00270", "uncertainty_m": 5.1 }, "geometry": { "type": "LineString", "coordinates": [ [ -80.332223, 32.478912 ], [ -80.332427, 32.478784 ], [ -80.333175, 32.478531 ] ] } },
{ "type": "Feature", "properties": { "year": 1933, "source": "NOAA T05155", "uncertainty_m": 10.8 }, "geometry": { "type": "MultiLineString", "coordinates": [ [ [ -80.197539, 32.569018 ], [ -80.197076, 32.568773 ], [ -80.196541, 32.568411 ], [ -80.195241, 32.567342 ], [ -80.195, 32.567105 ] ], [ [ -80.195, 32.557208 ], [ -80.195342, 32.556993 ], [ -80.19631, 32.556502 ], [ -80.19725, 32.555837 ], [ -80.197943, 32.555273 ], [ -80.199504, 32.554103 ], [ -80.200444, 32.553452 ], [ -80.201759, 32.552296 ] ] ] } },
{ "type": "Feature", "properties": { "year": 1933, "source": "NOAA T05155", "uncertainty_m": 10.8 }, "geometry": { "type": "LineString", "coordinates": [ [ -80.202366, 32.551732 ], [ -80.204101, 32.550402 ], [ -80.20465, 32.550099 ], [ -80.207367, 32.548813 ], [ -80.210012, 32.547685 ], [ -80.216921, 32.544505 ], [ -80.219103, 32.543436 ], [ -80.225304, 32.54056 ], [ -80.22766, 32.539432 ], [ -80.232487, 32.537062 ], [ -80.233643, 32.536412 ], [ -80.235161, 32.535674 ], [ -80.237517, 32.534345 ], [ -80.238904, 32.533637 ], [ -80.240032, 32.533261 ], [ -80.240653, 32.533217 ], [ -80.241434, 32.533362 ], [ -80.24259, 32.533637 ], [ -80.243602, 32.533795 ], [ -80.243847, 32.533911 ], [ -80.243934, 32.534113 ] ] } },
{ "type": "Feature", "properties": { "year": 1933, "source": "NOAA T05155", "uncertainty_m": 10.8 }, "geometry": { "type": "LineString", "coordinates": [ [ -80.245669, 32.533868 ], [ -80.245336, 32.533839 ], [ -80.245148, 32.533709 ], [ -80.244902, 32.53342 ], [ -80.244758, 32.532943 ], [ -80.244902, 32.532119 ], [ -80.245076, 32.531642 ], [ -80.245322, 32.531295 ], [ -80.245726, 32.530861 ], [ -80.246189, 32.530572 ], [ -80.249643, 32.528939 ], [ -80.250294, 32.528592 ], [ -80.250698, 32.528433 ], [ -80.256061, 32.525933 ], [ -80.257, 32.525427 ], [ -80.258055, 32.524964 ], [ -80.260845, 32.523562 ], [ -80.261278, 32.523403 ], [ -80.261567, 32.523216 ], [ -80.263287, 32.522421 ], [ -80.266265, 32.520975 ], [ -80.271728, 32.518128 ], [ -80.273853, 32.516957 ], [ -80.274937, 32.516408 ], [ -80.275428, 32.516321 ], [ -80.275905, 32.516278 ], [ -80.276252, 32.516292 ], [ -80.276599, 32.516509 ], [ -80.276772, 32.516668 ] ] } },
{ "type": "Feature", "properties": { "year": 1933, "source": "NOAA T05155", "uncertainty_m": 10.8 }, "geometry": { "type": "LineString", "coordinates": [ [ -80.277437, 32.516668 ], [ -80.277235, 32.516321 ], [ -80.277206, 32.515917 ], [ -80.277235, 32.515671 ], [ -80.277452, 32.515266 ], [ -80.278507, 32.514572 ], [ -80.280313, 32.513474 ], [ -80.283898, 32.511393 ], [ -80.28728, 32.509138 ], [ -80.288667, 32.508126 ], [ -80.290228, 32.507115 ], [ -80.291067, 32.506493 ], [ -80.293379, 32.504975 ], [ -80.29627, 32.502764 ], [ -80.297123, 32.502157 ], [ -80.302051, 32.498905 ], [ -80.310001, 32.493297 ], [ -80.311355, 32.492271 ] ] } },
{ "type": "Feature", "properties": { "year": 1970, "source": "NOAA TP00267", "uncertainty_m": 5.1 }, "geometry": { "type": "LineString", "coordinates": [ [ -80.29636, 32.502721 ], [ -80.296479, 32.502579 ], [ -80.296685, 32.502429 ], [ -80.296819, 32.502373 ], [ -80.297383, 32.502018 ], [ -80.298766, 32.50102 ], [ -80.299763, 32.500387 ] ] } },
{ "type": "Feature", "properties": { "year": 1970, "source": "NOAA TP00267", "uncertainty_m": 5.1 }, "geometry": { "type": "LineString", "coordinates": [ [ -80.294345, 32.504545 ], [ -80.295774, 32.503301 ], [ -80.296099, 32.502943 ] ] } },
{ "type": "Feature", "properties": { "year": 1970, "source": "NOAA TP00267", "uncertainty_m": 5.1 }, "geometry": { "type": "LineString", "coordinates": [ [ -80.294065, 32.504755 ], [ -80.293828, 32.504977 ], [ -80.293654, 32.505064 ], [ -80.292878, 32.505681 ], [ -80.291881, 32.506401 ], [ -80.291707, 32.50656 ], [ -80.289895, 32.507771 ], [ -80.289562, 32.508055 ], [ -80.289174, 32.508285 ], [ -80.288217, 32.509029 ], [ -80.28756, 32.509393 ], [ -80.286436, 32.510121 ], [ -80.285574, 32.51073 ], [ -80.285312, 32.510865 ], [ -80.28441, 32.511466 ], [ -80.283935, 32.511815 ], [ -80.283112, 32.512305 ], [ -80.282669, 32.512653 ], [ -80.281933, 32.513097 ], [ -80.281569, 32.513374 ], [ -80.279994, 32.514276 ], [ -80.279591, 32.514537 ], [ -80.27857, 32.515083 ], [ -80.278008, 32.515305 ], [ -80.277533, 32.515621 ], [ -80.277359, 32.515851 ], [ -80.277288, 32.516072 ], [ -80.277312, 32.5165 ] ] } },
{ "type": "Feature", "properties": { "year": 1970, "source": "NOAA TP00267", "uncertainty_m": 5.1 }, "geometry": { "type": "LineString", "coordinates": [ [ -80.276908, 32.516792 ], [ -80.276671, 32.516555 ], [ -80.276291, 32.516246 ], [ -80.276069, 32.516207 ], [ -80.27576, 32.51623 ], [ -80.27466, 32.516824 ], [ -80.273616, 32.517497 ], [ -80.272706, 32.517979 ], [ -80.271811, 32.518557 ], [ -80.270276, 32.519349 ], [ -80.269833, 32.519657 ], [ -80.26935, 32.519926 ], [ -80.268788, 32.520187 ], [ -80.268567, 32.520401 ], [ -80.268147, 32.52067 ], [ -80.26658, 32.521557 ], [ -80.265631, 32.522277 ], [ -80.264863, 32.522728 ], [ -80.264475, 32.523005 ], [ -80.261555, 32.524817 ], [ -80.260969, 32.525126 ], [ -80.260249, 32.525442 ], [ -80.25922, 32.526044 ], [ -80.258508, 32.526416 ], [ -80.257677, 32.526795 ], [ -80.255715, 32.527927 ], [ -80.254543, 32.528465 ], [ -80.253443, 32.529011 ], [ -80.252414, 32.529565 ], [ -80.252114, 32.529906 ], [ -80.251987, 32.530143 ], [ -80.251955, 32.530341 ], [ -80.251963, 32.530531 ], [ -80.252074, 32.53065 ], [ -80.252264, 32.530737 ] ] } },
{ "type": "Feature", "properties": { "year": 1970, "source": "NOAA TP00267", "uncertainty_m": 5.1 }, "geometry": { "type": "LineString", "coordinates": [ [ -80.249692, 32.531575 ], [ -80.249573, 32.53133 ], [ -80.249447, 32.531219 ], [ -80.248877, 32.531172 ], [ -80.248703, 32.531227 ], [ -80.247429, 32.531845 ], [ -80.246566, 32.532399 ], [ -80.245909, 32.532739 ], [ -80.244239, 32.533506 ], [ -80.243986, 32.533665 ], [ -80.243282, 32.534211 ], [ -80.243037, 32.53448 ], [ -80.242807, 32.534836 ], [ -80.242562, 32.535105 ], [ -80.242277, 32.53535 ], [ -80.241984, 32.535485 ] ] } },
{ "type": "Feature", "properties": { "year": 1970, "source": "NOAA TP00267", "uncertainty_m": 5.1 }, "geometry": { "type": "LineString", "coordinates": [ [ -80.241224, 32.53543 ], [ -80.241216, 32.535319 ], [ -80.241113, 32.53524 ], [ -80.240971, 32.535184 ], [ -80.24071, 32.53516 ], [ -80.240433, 32.535248 ], [ -80.237734, 32.536632 ], [ -80.236903, 32.537076 ], [ -80.236302, 32.537487 ], [ -80.234695, 32.538358 ], [ -80.232171, 32.539925 ], [ -80.230105, 32.541278 ], [ -80.228792, 32.542038 ], [ -80.227478, 32.542671 ], [ -80.224526, 32.543905 ], [ -80.224012, 32.544285 ], [ -80.223347, 32.54457 ], [ -80.221305, 32.545678 ], [ -80.220664, 32.545979 ], [ -80.220047, 32.546382 ], [ -80.219517, 32.546596 ], [ -80.218337, 32.547253 ], [ -80.217863, 32.547609 ], [ -80.216517, 32.548321 ], [ -80.214919, 32.549334 ], [ -80.214689, 32.549524 ], [ -80.21442, 32.549825 ], [ -80.213716, 32.550316 ], [ -80.213312, 32.550648 ], [ -80.213225, 32.550806 ], [ -80.212703, 32.551439 ], [ -80.21203, 32.552096 ], [ -80.211769, 32.552294 ], [ -80.211341, 32.552769 ], [ -80.21108, 32.553576 ], [ -80.211072, 32.553806 ], [ -80.211413, 32.55451 ] ] } },
{ "type": "Feature", "properties": { "year": 1970, "source": "NOAA TP00267", "uncertainty_m": 5.1 }, "geometry": { "type": "LineString", "coordinates": [ [ -80.209822, 32.556037 ], [ -80.208769, 32.556037 ], [ -80.207725, 32.555744 ], [ -80.206846, 32.555642 ], [ -80.205992, 32.555428 ], [ -80.205794, 32.555404 ], [ -80.205454, 32.555467 ], [ -80.205121, 32.555602 ], [ -80.204282, 32.556124 ], [ -80.203752, 32.556393 ], [ -80.203206, 32.556607 ], [ -80.202264, 32.557177 ], [ -80.201639, 32.557739 ], [ -80.200824, 32.55838 ], [ -80.200666, 32.558554 ], [ -80.200286, 32.559163 ], [ -80.200128, 32.559329 ], [ -80.199629, 32.559717 ], [ -80.199344, 32.559875 ], [ -80.198925, 32.560184 ], [ -80.19792, 32.560825 ], [ -80.197817, 32.561047 ], [ -80.197722, 32.561165 ], [ -80.197366, 32.561593 ], [ -80.197152, 32.561791 ], [ -80.196622, 32.562392 ], [ -80.196091, 32.563065 ], [ -80.195846, 32.563595 ], [ -80.195712, 32.56403 ], [ -80.195617, 32.564624 ], [ -80.195664, 32.565138 ], [ -80.195656, 32.565486 ], [ -80.196107, 32.56627 ], [ -80.196218, 32.566602 ], [ -80.196305, 32.567291 ] ] } },
{ "type": "Feature", "properties": { "year": 1920, "source": "NOAA/NOS CERC map", "uncertainty_m": 10.8 }, "geometry": { "type": "LineString", "coordinates": [ [ -80.34165, 32.494489 ], [ -80.342871, 32.495038 ], [ -80.343184, 32.495278 ], [ -80.343802, 32.495679 ], [ -80.344015, 32.495679 ], [ -80.344229, 32.495534 ], [ -80.344466, 32.495286 ], [ -80.344672, 32.494931 ], [ -80.344748, 32.494718 ], [ -80.344862, 32.494088 ], [ -80.344908, 32.493398 ], [ -80.344893, 32.492902 ], [ -80.344542, 32.491876 ], [ -80.344176, 32.491021 ], [ -80.344107, 32.490647 ], [ -80.34342, 32.489167 ], [ -80.342993, 32.48784 ], [ -80.342551, 32.486696 ], [ -80.342474, 32.486337 ], [ -80.341986, 32.484971 ], [ -80.341422, 32.483636 ], [ -80.34101, 32.482824 ], [ -80.340575, 32.48208 ], [ -80.340376, 32.481599 ], [ -80.340132, 32.481157 ], [ -80.339835, 32.480737 ], [ -80.33911, 32.479837 ], [ -80.338782, 32.479585 ], [ -80.338217, 32.479231 ], [ -80.337935, 32.47907 ], [ -80.337393, 32.478845 ], [ -80.336134, 32.478498 ], [ -80.335051, 32.4783 ], [ -80.334067, 32.478174 ], [ -80.332861, 32.478109 ], [ -80.332426, 32.478132 ], [ -80.331808, 32.478212 ], [ -80.33148, 32.478319 ], [ -80.331068, 32.478521 ], [ -80.330885, 32.478662 ], [ -80.330549, 32.478838 ], [ -80.330305, 32.479024 ], [ -80.32971, 32.479612 ], [ -80.328978, 32.480478 ], [ -80.328917, 32.480604 ], [ -80.328497, 32.481042 ], [ -80.3281, 32.481302 ], [ -80.327658, 32.481676 ], [ -80.32675, 32.482297 ], [ -80.325827, 32.482866 ], [ -80.325682, 32.483022 ], [ -80.325384, 32.483217 ], [ -80.32472, 32.483568 ], [ -80.323744, 32.484216 ], [ -80.323484, 32.484334 ], [ -80.323072, 32.484601 ], [ -80.322348, 32.484998 ], [ -80.321882, 32.48536 ], [ -80.32147, 32.48557 ], [ -80.320898, 32.485971 ], [ -80.320471, 32.48618 ], [ -80.319464, 32.486749 ], [ -80.319074, 32.487016 ], [ -80.318701, 32.487195 ], [ -80.318075, 32.487569 ], [ -80.3178, 32.487764 ], [ -80.317747, 32.487832 ], [ -80.317411, 32.488011 ], [ -80.316946, 32.488343 ], [ -80.316175, 32.488828 ], [ -80.314542, 32.490033 ], [ -80.313375, 32.490796 ], [ -80.312963, 32.491151 ], [ -80.312177, 32.491528 ], [ -80.311689, 32.491834 ], [ -80.311124, 32.492303 ], [ -80.310575, 32.492642 ], [ -80.310064, 32.493069 ], [ -80.309858, 32.49318 ], [ -80.308858, 32.49397 ], [ -80.308088, 32.49445 ], [ -80.307653, 32.494839 ], [ -80.30673, 32.495457 ], [ -80.306226, 32.495877 ], [ -80.305417, 32.496331 ], [ -80.304426, 32.496991 ], [ -80.304235, 32.497155 ], [ -80.303998, 32.497304 ], [ -80.30364, 32.497635 ], [ -80.303312, 32.497769 ], [ -80.303144, 32.497986 ], [ -80.302633, 32.498292 ], [ -80.301923, 32.498868 ], [ -80.301221, 32.499287 ], [ -80.300595, 32.499577 ], [ -80.300138, 32.500084 ], [ -80.299268, 32.500729 ], [ -80.299008, 32.50087 ], [ -80.297978, 32.501568 ], [ -80.29765, 32.501759 ], [ -80.296964, 32.502083 ], [ -80.296681, 32.502259 ], [ -80.296224, 32.502621 ], [ -80.295224, 32.503231 ], [ -80.294927, 32.503475 ], [ -80.294339, 32.50375 ], [ -80.294225, 32.503907 ], [ -80.294095, 32.50401 ], [ -80.293836, 32.504162 ], [ -80.293233, 32.504601 ], [ -80.292943, 32.504734 ], [ -80.292394, 32.50512 ], [ -80.291318, 32.505722 ], [ -80.290997, 32.505982 ], [ -80.290814, 32.506073 ], [ -80.290219, 32.506493 ], [ -80.289906, 32.506661 ], [ -80.289388, 32.507031 ], [ -80.287137, 32.508373 ], [ -80.286778, 32.508675 ], [ -80.286595, 32.508743 ], [ -80.286328, 32.508926 ], [ -80.285352, 32.509453 ], [ -80.284817, 32.509827 ], [ -80.284039, 32.510254 ], [ -80.283192, 32.510769 ] ] } },
{ "type": "Feature", "properties": { "year": 1971, "source": "NOAA TP00269", "uncertainty_m": 5.1 }, "geometry": { "type": "LineString", "coordinates": [ [ -80.345706, 32.495851 ], [ -80.34539, 32.494716 ], [ -80.345396, 32.494434 ], [ -80.345536, 32.494212 ], [ -80.345561, 32.493893 ], [ -80.34547, 32.493597 ], [ -80.345374, 32.492957 ], [ -80.345249, 32.492399 ], [ -80.345049, 32.491916 ], [ -80.344414, 32.490701 ], [ -80.343911, 32.489576 ], [ -80.343585, 32.489026 ], [ -80.343372, 32.488511 ], [ -80.343005, 32.487859 ], [ -80.342757, 32.487322 ], [ -80.342608, 32.486885 ], [ -80.342248, 32.486115 ], [ -80.342059, 32.485472 ], [ -80.34129, 32.4835 ], [ -80.341115, 32.482766 ], [ -80.340871, 32.481966 ], [ -80.340511, 32.48126 ], [ -80.34017, 32.480642 ], [ -80.339987, 32.480397 ], [ -80.339452, 32.479746 ], [ -80.339073, 32.479342 ], [ -80.338909, 32.479236 ], [ -80.338422, 32.479064 ], [ -80.337318, 32.478802 ], [ -80.33677, 32.478624 ], [ -80.3364, 32.478312 ], [ -80.336317, 32.478166 ], [ -80.336286, 32.47803 ] ] } },
{ "type": "Feature", "properties": { "year": 1964, "source": "NOAA/NOS CERC map", "uncertainty_m": 5.1 }, "geometry": { "type": "LineString", "coordinates": [ [ -80.283238, 32.512527 ], [ -80.283757, 32.512142 ], [ -80.28423, 32.511894 ], [ -80.284749, 32.511555 ], [ -80.285214, 32.511154 ], [ -80.286511, 32.510281 ], [ -80.286717, 32.510178 ], [ -80.2869, 32.510021 ], [ -80.288808, 32.508759 ], [ -80.289471, 32.508228 ], [ -80.290089, 32.507851 ], [ -80.290547, 32.507446 ], [ -80.290944, 32.507008 ], [ -80.291318, 32.506657 ], [ -80.291913, 32.506207 ], [ -80.292661, 32.505711 ], [ -80.293698, 32.504902 ], [ -80.294286, 32.504528 ], [ -80.294507, 32.50433 ], [ -80.295171, 32.50354 ], [ -80.295255, 32.503495 ], [ -80.295392, 32.503521 ], [ -80.295499, 32.503491 ], [ -80.296155, 32.502816 ], [ -80.296659, 32.502438 ], [ -80.296735, 32.502354 ], [ -80.296742, 32.502282 ], [ -80.296796, 32.502335 ], [ -80.296857, 32.502339 ], [ -80.297193, 32.502221 ], [ -80.297422, 32.502114 ], [ -80.298123, 32.501683 ], [ -80.298314, 32.501442 ], [ -80.298421, 32.501477 ], [ -80.29865, 32.501412 ], [ -80.299741, 32.500695 ], [ -80.299894, 32.500538 ], [ -80.299924, 32.500466 ], [ -80.300054, 32.500538 ], [ -80.300176, 32.500504 ], [ -80.301435, 32.499665 ], [ -80.302968, 32.4987 ], [ -80.303167, 32.498543 ], [ -80.303182, 32.498486 ], [ -80.303617, 32.498253 ], [ -80.303899, 32.498059 ], [ -80.304708, 32.497319 ], [ -80.305181, 32.49709 ], [ -80.305501, 32.496892 ], [ -80.306173, 32.4963 ], [ -80.306844, 32.495938 ], [ -80.307699, 32.495255 ], [ -80.308446, 32.494897 ], [ -80.308813, 32.494649 ], [ -80.309263, 32.494149 ], [ -80.309911, 32.493733 ], [ -80.310567, 32.493203 ], [ -80.310758, 32.493096 ], [ -80.311803, 32.492089 ], [ -80.311895, 32.492104 ], [ -80.312276, 32.491929 ], [ -80.313352, 32.49112 ], [ -80.313558, 32.490907 ], [ -80.313833, 32.490724 ], [ -80.314146, 32.490434 ], [ -80.315061, 32.489709 ], [ -80.316145, 32.488992 ], [ -80.316404, 32.488732 ], [ -80.316618, 32.488568 ], [ -80.317922, 32.48779 ], [ -80.318365, 32.487477 ], [ -80.318716, 32.487184 ], [ -80.319021, 32.487043 ], [ -80.319631, 32.486821 ], [ -80.320303, 32.486428 ], [ -80.320883, 32.486039 ], [ -80.321531, 32.485681 ], [ -80.32205, 32.485307 ], [ -80.322386, 32.485132 ], [ -80.32276, 32.484884 ], [ -80.32369, 32.484227 ], [ -80.324347, 32.483697 ], [ -80.324614, 32.483526 ], [ -80.32511, 32.483083 ], [ -80.325743, 32.482614 ], [ -80.326574, 32.481885 ], [ -80.328222, 32.480646 ], [ -80.328459, 32.480421 ], [ -80.329413, 32.479662 ], [ -80.331282, 32.478719 ], [ -80.331671, 32.478536 ], [ -80.332327, 32.478284 ], [ -80.333998, 32.47788 ], [ -80.334799, 32.477781 ], [ -80.335692, 32.477739 ], [ -80.336241, 32.47775 ], [ -80.336745, 32.477804 ], [ -80.337546, 32.477991 ], [ -80.338408, 32.478361 ], [ -80.339133, 32.478796 ], [ -80.339438, 32.479059 ], [ -80.339713, 32.479242 ], [ -80.33988, 32.47949 ], [ -80.340094, 32.479841 ], [ -80.340514, 32.480783 ], [ -80.34101, 32.482183 ], [ -80.341055, 32.482343 ], [ -80.341071, 32.482652 ], [ -80.341193, 32.483091 ], [ -80.341704, 32.484472 ], [ -80.342513, 32.486398 ], [ -80.342558, 32.486669 ], [ -80.342696, 32.4871 ], [ -80.34297, 32.487748 ], [ -80.343222, 32.488153 ], [ -80.343382, 32.488507 ], [ -80.343382, 32.488599 ], [ -80.343611, 32.489389 ], [ -80.343962, 32.490312 ], [ -80.344603, 32.491574 ], [ -80.344908, 32.492299 ], [ -80.345396, 32.493924 ], [ -80.345847, 32.495149 ], [ -80.345923, 32.495431 ], [ -80.345915, 32.4959 ], [ -80.345633, 32.496266 ], [ -80.345381, 32.496385 ], [ -80.345114, 32.496369 ], [ -80.344847, 32.496301 ], [ -80.344588, 32.496182 ], [ -80.343871, 32.49577 ], [ -80.343344, 32.495595 ], [ -80.342795, 32.495282 ] ] } },
{ "type": "Feature", "properties": { "year": 1964, "source": "NOAA/NOS CERC map", "uncertainty_m": 5.1 }, "geometry": { "type": "LineString", "coordinates": [ [ -80.277266, 32.51645 ], [ -80.277211, 32.516346 ], [ -80.277211, 32.516239 ], [ -80.277279, 32.516117 ], [ -80.277455, 32.515846 ], [ -80.277737, 32.515613 ], [ -80.278027, 32.515438 ], [ -80.279118, 32.51495 ], [ -80.27969, 32.514652 ], [ -80.280575, 32.514122 ], [ -80.280949, 32.513939 ], [ -80.281773, 32.513466 ], [ -80.283147, 32.512539 ] ] } },
{ "type": "Feature", "properties": { "year": 1964, "source": "NOAA/NOS CERC map", "uncertainty_m": 5.1 }, "geometry": { "type": "LineString", "coordinates": [ [ -80.251621, 32.530711 ], [ -80.251423, 32.530707 ], [ -80.251133, 32.530768 ], [ -80.251018, 32.53073 ], [ -80.250522, 32.530726 ], [ -80.250454, 32.530623 ], [ -80.250309, 32.53023 ], [ -80.250324, 32.530139 ], [ -80.250385, 32.530063 ], [ -80.250782, 32.529708 ], [ -80.251041, 32.529521 ], [ -80.251148, 32.529483 ], [ -80.2514, 32.529277 ], [ -80.251819, 32.529029 ], [ -80.252262, 32.528789 ], [ -80.252712, 32.528605 ], [ -80.252979, 32.528434 ], [ -80.254223, 32.527831 ], [ -80.255245, 32.527278 ], [ -80.255962, 32.527 ], [ -80.256115, 32.5269 ], [ -80.256588, 32.52674 ], [ -80.257954, 32.526042 ], [ -80.259167, 32.525539 ], [ -80.260372, 32.524821 ], [ -80.26067, 32.524696 ], [ -80.260929, 32.524505 ], [ -80.262264, 32.523917 ], [ -80.263706, 32.523032 ], [ -80.264538, 32.522601 ], [ -80.264981, 32.522292 ], [ -80.265248, 32.522148 ], [ -80.265644, 32.521987 ], [ -80.265736, 32.521911 ], [ -80.266674, 32.521449 ], [ -80.267094, 32.521182 ], [ -80.268215, 32.520591 ], [ -80.268872, 32.52016 ], [ -80.269924, 32.519653 ], [ -80.27039, 32.51929 ], [ -80.271481, 32.51876 ], [ -80.271687, 32.518611 ], [ -80.272747, 32.518127 ], [ -80.273129, 32.517875 ], [ -80.273526, 32.517669 ], [ -80.273823, 32.517463 ], [ -80.274395, 32.517196 ], [ -80.274769, 32.516956 ], [ -80.275364, 32.516636 ], [ -80.275799, 32.516544 ], [ -80.276059, 32.51654 ], [ -80.276417, 32.516594 ], [ -80.276684, 32.516716 ] ] } },
{ "type": "Feature", "properties": { "year": 1964, "source": "NOAA/NOS CERC map", "uncertainty_m": 5.1 }, "geometry": { "type": "LineString", "coordinates": [ [ -80.214194, 32.550652 ], [ -80.214198, 32.5506 ], [ -80.214366, 32.550417 ], [ -80.214595, 32.550226 ], [ -80.214755, 32.549959 ], [ -80.215007, 32.549677 ], [ -80.215343, 32.549421 ], [ -80.215701, 32.5492 ], [ -80.216228, 32.548979 ], [ -80.216884, 32.548494 ], [ -80.218204, 32.5478 ], [ -80.218486, 32.547613 ], [ -80.218944, 32.547411 ], [ -80.219615, 32.546881 ], [ -80.219966, 32.546545 ], [ -80.220195, 32.546373 ], [ -80.220752, 32.546167 ], [ -80.221027, 32.546034 ], [ -80.221599, 32.545622 ], [ -80.22195, 32.545412 ], [ -80.22317, 32.544802 ], [ -80.223514, 32.544527 ], [ -80.224162, 32.544115 ], [ -80.224673, 32.543619 ], [ -80.225353, 32.543089 ], [ -80.226054, 32.542708 ], [ -80.226932, 32.542158 ], [ -80.227634, 32.541781 ], [ -80.227992, 32.541525 ], [ -80.228557, 32.541247 ], [ -80.228694, 32.541147 ], [ -80.22887, 32.541079 ], [ -80.229358, 32.540797 ], [ -80.229526, 32.540747 ], [ -80.230464, 32.540262 ], [ -80.230754, 32.540083 ], [ -80.231029, 32.539976 ], [ -80.231868, 32.539797 ], [ -80.232295, 32.539614 ], [ -80.23431, 32.538344 ], [ -80.234699, 32.538161 ], [ -80.234867, 32.538035 ], [ -80.235889, 32.537489 ], [ -80.236812, 32.536917 ], [ -80.237087, 32.53681 ], [ -80.237697, 32.53649 ], [ -80.238079, 32.536246 ], [ -80.238346, 32.536139 ], [ -80.239063, 32.535719 ], [ -80.239872, 32.535155 ], [ -80.240764, 32.53469 ], [ -80.24097, 32.534518 ], [ -80.241314, 32.5343 ], [ -80.241542, 32.534102 ], [ -80.24216, 32.533717 ], [ -80.242374, 32.533526 ], [ -80.242466, 32.533484 ], [ -80.242733, 32.533454 ], [ -80.243137, 32.533339 ], [ -80.244663, 32.53321 ], [ -80.245113, 32.533057 ], [ -80.245586, 32.533019 ], [ -80.24641, 32.533042 ], [ -80.24715, 32.533141 ], [ -80.247341, 32.533248 ], [ -80.247427, 32.533393 ] ] } },
{ "type": "Feature", "properties": { "year": 1964, "source": "NOAA/NOS CERC map", "uncertainty_m": 5.1 }, "geometry": { "type": "LineString", "coordinates": [ [ -80.195, 32.575861 ], [ -80.195155, 32.576176 ], [ -80.195185, 32.576344 ], [ -80.195098, 32.57644 ] ] } },
{ "type": "Feature", "properties": { "year": 1964, "source": "NOAA/NOS CERC map", "uncertainty_m": 5.1 }, "geometry": { "type": "LineString", "coordinates": [ [ -80.1999, 32.569361 ], [ -80.199511, 32.569299 ], [ -80.198779, 32.569108 ], [ -80.197917, 32.568742 ], [ -80.197314, 32.568246 ], [ -80.196848, 32.567948 ], [ -80.196536, 32.567681 ], [ -80.196345, 32.567468 ], [ -80.196002, 32.566632 ], [ -80.196009, 32.566525 ], [ -80.19607, 32.566419 ], [ -80.196055, 32.566342 ], [ -80.195422, 32.565308 ], [ -80.195292, 32.564835 ], [ -80.195284, 32.564321 ], [ -80.195254, 32.56421 ], [ -80.1953, 32.563878 ], [ -80.195551, 32.563008 ], [ -80.195628, 32.562856 ], [ -80.195818, 32.562608 ], [ -80.196963, 32.561685 ], [ -80.197161, 32.561483 ], [ -80.197543, 32.561238 ], [ -80.197772, 32.560956 ], [ -80.198168, 32.560643 ], [ -80.199343, 32.559808 ], [ -80.200289, 32.559022 ], [ -80.200968, 32.558553 ], [ -80.201579, 32.558023 ], [ -80.201899, 32.557851 ], [ -80.202311, 32.557367 ], [ -80.202471, 32.557229 ], [ -80.202822, 32.557058 ], [ -80.203257, 32.556947 ], [ -80.204203, 32.556562 ], [ -80.204875, 32.556337 ], [ -80.2056, 32.556192 ], [ -80.20605, 32.556142 ], [ -80.206965, 32.556119 ], [ -80.20756, 32.556253 ], [ -80.207751, 32.556348 ], [ -80.20801, 32.556421 ], [ -80.208438, 32.556482 ], [ -80.209018, 32.556657 ], [ -80.209208, 32.556676 ], [ -80.209407, 32.556661 ], [ -80.210528, 32.556421 ], [ -80.210894, 32.556421 ], [ -80.211165, 32.5565 ] ] } },
{ "type": "Feature", "properties": { "year": 1854, "source": "NOAA/NOS CERC map", "uncertainty_m": 10.8 }, "geometry": { "type": "LineString", "coordinates": [ [ -80.275542, 32.515737 ], [ -80.275471, 32.515644 ], [ -80.275464, 32.515461 ], [ -80.27567, 32.514904 ], [ -80.275898, 32.514499 ], [ -80.275967, 32.514438 ], [ -80.275982, 32.514366 ], [ -80.276867, 32.513412 ], [ -80.277569, 32.512855 ], [ -80.277661, 32.512832 ], [ -80.277997, 32.51263 ], [ -80.279072, 32.512249 ], [ -80.279652, 32.511993 ], [ -80.279889, 32.51186 ], [ -80.280446, 32.511646 ], [ -80.28082, 32.511471 ], [ -80.280881, 32.511413 ], [ -80.281293, 32.511246 ], [ -80.281582, 32.511074 ], [ -80.282086, 32.510868 ], [ -80.282277, 32.510757 ], [ -80.282445, 32.510712 ], [ -80.283147, 32.510361 ] ] } },
{ "type": "Feature", "properties": { "year": 1854, "source": "NOAA/NOS CERC map", "uncertainty_m": 10.8 }, "geometry": { "type": "LineString", "coordinates": [ [ -80.247945, 32.529771 ], [ -80.24934, 32.528491 ], [ -80.249874, 32.527495 ], [ -80.250187, 32.526519 ], [ -80.250507, 32.525863 ], [ -80.250713, 32.525626 ], [ -80.250957, 32.525424 ], [ -80.251568, 32.525088 ], [ -80.251949, 32.524814 ], [ -80.252827, 32.52452 ], [ -80.253818, 32.523986 ], [ -80.254848, 32.52357 ], [ -80.255169, 32.52336 ], [ -80.255444, 32.523265 ], [ -80.255695, 32.523116 ], [ -80.256039, 32.522971 ], [ -80.256222, 32.522846 ], [ -80.256527, 32.522743 ], [ -80.257305, 32.522357 ], [ -80.258404, 32.521934 ], [ -80.258999, 32.521636 ], [ -80.260845, 32.520965 ], [ -80.261868, 32.520538 ], [ -80.26247, 32.520336 ], [ -80.26334, 32.519924 ], [ -80.264622, 32.519401 ], [ -80.265492, 32.518928 ], [ -80.265736, 32.518863 ], [ -80.266232, 32.518573 ], [ -80.266476, 32.518463 ], [ -80.266865, 32.518211 ], [ -80.267369, 32.518028 ], [ -80.267475, 32.517952 ], [ -80.268132, 32.517669 ], [ -80.268597, 32.517425 ], [ -80.268864, 32.517246 ], [ -80.269245, 32.51707 ], [ -80.269368, 32.517044 ], [ -80.270237, 32.516624 ], [ -80.271443, 32.516159 ], [ -80.272366, 32.515903 ], [ -80.273404, 32.515526 ], [ -80.273915, 32.515388 ], [ -80.274121, 32.515381 ], [ -80.274624, 32.515476 ], [ -80.274952, 32.515747 ], [ -80.275021, 32.515842 ], [ -80.275039, 32.515951 ] ] } },
{ "type": "Feature", "properties": { "year": 1854, "source": "NOAA/NOS CERC map", "uncertainty_m": 10.8 }, "geometry": { "type": "LineString", "coordinates": [ [ -80.195, 32.550505 ], [ -80.195361, 32.550405 ], [ -80.196063, 32.550081 ], [ -80.196391, 32.549974 ], [ -80.197878, 32.549608 ], [ -80.198573, 32.549371 ], [ -80.199526, 32.549173 ], [ -80.199885, 32.549135 ], [ -80.200343, 32.548944 ], [ -80.200572, 32.548811 ], [ -80.200938, 32.548685 ], [ -80.201831, 32.548498 ], [ -80.202098, 32.548353 ], [ -80.202449, 32.548246 ], [ -80.202502, 32.548204 ], [ -80.202937, 32.548105 ], [ -80.203074, 32.548029 ], [ -80.203356, 32.547956 ], [ -80.203921, 32.547701 ], [ -80.204158, 32.547624 ], [ -80.204585, 32.547399 ], [ -80.204798, 32.547334 ], [ -80.20534, 32.547045 ], [ -80.20547, 32.547018 ], [ -80.205691, 32.5469 ], [ -80.206073, 32.546785 ], [ -80.207141, 32.546339 ], [ -80.207301, 32.546308 ], [ -80.207492, 32.54614 ], [ -80.20782, 32.545934 ], [ -80.208072, 32.545847 ], [ -80.208377, 32.545786 ], [ -80.208613, 32.545698 ], [ -80.208697, 32.545626 ], [ -80.208941, 32.545507 ], [ -80.209071, 32.545488 ], [ -80.209521, 32.545225 ], [ -80.20959, 32.545221 ], [ -80.209956, 32.545057 ], [ -80.210177, 32.54492 ], [ -80.21046, 32.544824 ], [ -80.211108, 32.544531 ], [ -80.211688, 32.544172 ], [ -80.211757, 32.544096 ], [ -80.211978, 32.543955 ], [ -80.212779, 32.543699 ], [ -80.213, 32.543592 ], [ -80.214114, 32.543196 ], [ -80.214793, 32.542833 ], [ -80.215907, 32.542456 ], [ -80.216228, 32.542276 ], [ -80.217601, 32.541849 ], [ -80.217982, 32.54167 ], [ -80.218303, 32.541559 ], [ -80.21857, 32.541407 ], [ -80.219005, 32.541239 ], [ -80.219089, 32.541163 ], [ -80.219417, 32.541018 ], [ -80.220142, 32.540789 ], [ -80.220889, 32.540434 ], [ -80.221027, 32.540342 ], [ -80.221271, 32.540255 ], [ -80.221339, 32.540194 ], [ -80.222079, 32.539938 ], [ -80.222652, 32.539664 ], [ -80.222911, 32.539606 ], [ -80.223247, 32.539416 ], [ -80.223407, 32.539263 ], [ -80.223643, 32.539133 ], [ -80.223979, 32.539 ], [ -80.224666, 32.538805 ], [ -80.225269, 32.538512 ], [ -80.225764, 32.538229 ], [ -80.226009, 32.538142 ], [ -80.226588, 32.537829 ], [ -80.226711, 32.537794 ], [ -80.226787, 32.537733 ], [ -80.227611, 32.537478 ], [ -80.228519, 32.537096 ], [ -80.228954, 32.536879 ], [ -80.229411, 32.536726 ], [ -80.229678, 32.536593 ], [ -80.230213, 32.536402 ], [ -80.230525, 32.536326 ], [ -80.230998, 32.536101 ], [ -80.231372, 32.535994 ], [ -80.231479, 32.535918 ], [ -80.232028, 32.535761 ], [ -80.232997, 32.535353 ], [ -80.23318, 32.53525 ], [ -80.233493, 32.535143 ], [ -80.233936, 32.534918 ], [ -80.23418, 32.534873 ], [ -80.234615, 32.534632 ], [ -80.234722, 32.534609 ], [ -80.234966, 32.534449 ], [ -80.235858, 32.53403 ], [ -80.236507, 32.533801 ], [ -80.236743, 32.53377 ], [ -80.23701, 32.533686 ], [ -80.237468, 32.533618 ], [ -80.238117, 32.533282 ], [ -80.238643, 32.53324 ], [ -80.23949, 32.532813 ], [ -80.240726, 32.532332 ], [ -80.241138, 32.532233 ], [ -80.241626, 32.532023 ], [ -80.242305, 32.53192 ], [ -80.243129, 32.531726 ], [ -80.243213, 32.531665 ], [ -80.243267, 32.531569 ], [ -80.24329, 32.531352 ], [ -80.243328, 32.531272 ], [ -80.243679, 32.530944 ], [ -80.244106, 32.530455 ], [ -80.244129, 32.530364 ], [ -80.244205, 32.530295 ], [ -80.244343, 32.53004 ], [ -80.244724, 32.529849 ], [ -80.244907, 32.529708 ], [ -80.245029, 32.529532 ], [ -80.245182, 32.52941 ], [ -80.245922, 32.528941 ], [ -80.246105, 32.528766 ], [ -80.246036, 32.528342 ], [ -80.246235, 32.528029 ], [ -80.246334, 32.527808 ], [ -80.246502, 32.527263 ], [ -80.246639, 32.527087 ] ] } },
{ "type": "Feature", "properties": { "year": 2010, "source": "USGS lidar MHW", "uncertainty_m": 4.21576 }, "geometry": { "type": "LineString", "coordinates": [ [ -80.343939, 32.489059 ], [ -80.343214, 32.487516 ], [ -80.34285, 32.486288 ], [ -80.342458, 32.485181 ], [ -80.342093, 32.483957 ], [ -80.341331, 32.481646 ], [ -80.340903, 32.480693 ], [ -80.340751, 32.480415 ], [ -80.340425, 32.479952 ], [ -80.339909, 32.479376 ], [ -80.339544, 32.479082 ], [ -80.338967, 32.478764 ], [ -80.337588, 32.478168 ], [ -80.33739, 32.478087 ], [ -80.336576, 32.477854 ], [ -80.336194, 32.477632 ], [ -80.335128, 32.477747 ] ] } },
{ "type": "Feature", "properties": { "year": 2010, "source": "USGS lidar MHW", "uncertainty_m": 1.40691 }, "geometry": { "type": "LineString", "coordinates": [ [ -80.334675, 32.477693 ], [ -80.333647, 32.477927 ], [ -80.333417, 32.477885 ], [ -80.33241, 32.478195 ], [ -80.330807, 32.478822 ], [ -80.330472, 32.479045 ], [ -80.329906, 32.479313 ], [ -80.329603, 32.479568 ], [ -80.329088, 32.47989 ], [ -80.328551, 32.480188 ], [ -80.327696, 32.480727 ], [ -80.327152, 32.481018 ], [ -80.326858, 32.481283 ], [ -80.325883, 32.481982 ], [ -80.325366, 32.482301 ], [ -80.325268, 32.482485 ], [ -80.325113, 32.482609 ], [ -80.323855, 32.483586 ], [ -80.323199, 32.484045 ], [ -80.322844, 32.484248 ], [ -80.322553, 32.484516 ], [ -80.321357, 32.485271 ], [ -80.32099, 32.485462 ], [ -80.320854, 32.485605 ], [ -80.319994, 32.486139 ], [ -80.319641, 32.486343 ], [ -80.319069, 32.486605 ], [ -80.318912, 32.486727 ], [ -80.317674, 32.48744 ], [ -80.317552, 32.487598 ], [ -80.317394, 32.487719 ], [ -80.316346, 32.488343 ], [ -80.316256, 32.488534 ], [ -80.316103, 32.48866 ], [ -80.314614, 32.489682 ], [ -80.314557, 32.489908 ], [ -80.313729, 32.490475 ], [ -80.313376, 32.49068 ], [ -80.313268, 32.490852 ], [ -80.313125, 32.49099 ], [ -80.312315, 32.491574 ], [ -80.311798, 32.491894 ], [ -80.311575, 32.491948 ], [ -80.31152, 32.492176 ], [ -80.310336, 32.492943 ], [ -80.310232, 32.493121 ], [ -80.310078, 32.493246 ], [ -80.308881, 32.494 ], [ -80.30879, 32.494191 ], [ -80.308649, 32.49433 ], [ -80.307977, 32.494774 ], [ -80.307437, 32.495069 ], [ -80.30734, 32.495253 ], [ -80.307193, 32.495386 ], [ -80.306372, 32.49596 ], [ -80.306017, 32.496162 ], [ -80.305731, 32.496436 ], [ -80.304897, 32.496996 ], [ -80.304356, 32.497291 ], [ -80.304232, 32.497447 ], [ -80.304075, 32.49757 ], [ -80.303049, 32.498216 ] ] } },
{ "type": "Feature", "properties": { "year": 2010, "source": "USGS lidar MHW", "uncertainty_m": 1.69543 }, "geometry": { "type": "LineString", "coordinates": [ [ -80.302755, 32.498482 ], [ -80.301917, 32.499038 ], [ -80.301371, 32.499327 ], [ -80.301066, 32.499581 ], [ -80.300573, 32.499925 ], [ -80.299859, 32.500325 ], [ -80.299564, 32.50059 ], [ -80.299059, 32.500922 ], [ -80.29835, 32.501327 ], [ -80.298061, 32.501597 ], [ -80.297212, 32.502142 ], [ -80.29685, 32.502337 ], [ -80.296732, 32.5025 ], [ -80.296577, 32.502625 ], [ -80.295745, 32.503187 ], [ -80.29539, 32.503389 ], [ -80.295303, 32.503584 ], [ -80.295015, 32.503855 ], [ -80.293148, 32.505341 ], [ -80.29234, 32.505928 ], [ -80.291404, 32.506667 ], [ -80.290479, 32.507417 ], [ -80.289438, 32.508331 ], [ -80.287913, 32.509599 ], [ -80.285549, 32.511422 ], [ -80.28391, 32.512574 ], [ -80.283229, 32.513009 ], [ -80.281244, 32.514372 ], [ -80.280052, 32.515133 ], [ -80.279166, 32.515641 ], [ -80.278501, 32.516092 ], [ -80.278382, 32.516253 ], [ -80.27819, 32.516621 ], [ -80.277794, 32.517064 ], [ -80.277685, 32.517235 ] ] } },
{ "type": "Feature", "properties": { "year": 2010, "source": "USGS lidar MHW", "uncertainty_m": 3.11052 }, "geometry": { "type": "LineString", "coordinates": [ [ -80.277198, 32.517303 ], [ -80.276906, 32.517288 ], [ -80.276686, 32.517346 ], [ -80.276507, 32.517446 ], [ -80.275518, 32.518132 ], [ -80.275003, 32.518454 ], [ -80.273061, 32.519591 ], [ -80.269289, 32.521957 ], [ -80.267544, 32.522994 ], [ -80.265593, 32.524092 ], [ -80.263593, 32.525126 ], [ -80.262166, 32.525915 ], [ -80.260864, 32.526535 ], [ -80.259238, 32.527395 ], [ -80.257496, 32.528435 ], [ -80.255623, 32.529635 ], [ -80.254798, 32.530215 ], [ -80.254372, 32.530652 ], [ -80.254184, 32.531068 ], [ -80.254142, 32.531344 ] ] } },
{ "type": "Feature", "properties": { "year": 2010, "source": "USGS lidar MHW", "uncertainty_m": 2.08525 }, "geometry": { "type": "LineString", "coordinates": [ [ -80.252756, 32.532185 ], [ -80.252272, 32.532217 ], [ -80.251969, 32.532154 ], [ -80.251258, 32.531891 ], [ -80.251059, 32.531963 ], [ -80.250728, 32.532194 ], [ -80.250145, 32.532758 ], [ -80.249983, 32.532877 ], [ -80.248759, 32.533599 ], [ -80.2476, 32.534405 ], [ -80.246054, 32.535369 ], [ -80.245517, 32.535993 ] ] } },
{ "type": "Feature", "properties": { "year": 2010, "source": "USGS lidar MHW", "uncertainty_m": 1.68432 }, "geometry": { "type": "LineString", "coordinates": [ [ -80.245686, 32.536873 ], [ -80.244862, 32.537124 ], [ -80.243761, 32.537345 ], [ -80.242963, 32.537629 ] ] } },
{ "type": "Feature", "properties": { "year": 2010, "source": "USGS lidar MHW", "uncertainty_m": 2.58965 }, "geometry": { "type": "LineString", "coordinates": [ [ -80.241705, 32.537647 ], [ -80.24133, 32.53782 ], [ -80.240618, 32.538217 ], [ -80.239122, 32.539246 ], [ -80.237557, 32.540186 ], [ -80.237076, 32.540552 ], [ -80.236505, 32.540801 ], [ -80.236389, 32.54098 ], [ -80.236025, 32.541168 ], [ -80.235348, 32.54161 ], [ -80.234639, 32.54201 ], [ -80.23431, 32.542243 ], [ -80.233218, 32.542806 ], [ -80.232698, 32.543123 ], [ -80.22861, 32.545409 ], [ -80.226787, 32.546344 ], [ -80.225528, 32.547021 ], [ -80.223955, 32.54795 ], [ -80.222854, 32.548501 ], [ -80.219277, 32.550131 ], [ -80.216182, 32.551396 ], [ -80.212668, 32.552766 ], [ -80.209669, 32.553721 ], [ -80.208102, 32.554289 ], [ -80.207531, 32.554534 ], [ -80.207005, 32.554859 ], [ -80.206457, 32.555146 ], [ -80.20531, 32.555625 ], [ -80.203814, 32.556323 ], [ -80.203045, 32.556634 ], [ -80.201665, 32.557115 ], [ -80.200525, 32.557607 ], [ -80.19974, 32.557888 ], [ -80.198926, 32.558116 ], [ -80.197229, 32.558447 ], [ -80.196822, 32.558562 ], [ -80.195, 32.559326 ] ] } },
{ "type": "Feature", "properties": { "year": 2018, "source": "USGS lidar MHW", "uncertainty_m": 10.3769 }, "geometry": { "type": "LineString", "coordinates": [ [ -80.346433, 32.493243 ], [ -80.34631, 32.492842 ], [ -80.346167, 32.492525 ], [ -80.344359, 32.490046 ], [ -80.344159, 32.489044 ], [ -80.343689, 32.487343 ], [ -80.342513, 32.484018 ], [ -80.342227, 32.483384 ], [ -80.341907, 32.482898 ], [ -80.341568, 32.482492 ], [ -80.341041, 32.481961 ] ] } },
{ "type": "Feature", "properties": { "year": 2018, "source": "USGS lidar MHW", "uncertainty_m": 2.75327 }, "geometry": { "type": "LineString", "coordinates": [ [ -80.34103, 32.480152 ], [ -80.340869, 32.479911 ], [ -80.340696, 32.479722 ], [ -80.340146, 32.479291 ], [ -80.339352, 32.478974 ], [ -80.338962, 32.478787 ], [ -80.33794, 32.478517 ], [ -80.337745, 32.478423 ], [ -80.337565, 32.478264 ], [ -80.336936, 32.47817 ], [ -80.336532, 32.478043 ] ] } },
{ "type": "Feature", "properties": { "year": 2018, "source": "USGS lidar MHW", "uncertainty_m": 2.45733 }, "geometry": { "type": "LineString", "coordinates": [ [ -80.336187, 32.477661 ], [ -80.335127, 32.477744 ] ] } },
{ "type": "Feature", "properties": { "year": 2018, "source": "USGS lidar MHW", "uncertainty_m": 3.1603 }, "geometry": { "type": "LineString", "coordinates": [ [ -80.334656, 32.477623 ], [ -80.334047, 32.477793 ], [ -80.333631, 32.477869 ], [ -80.333395, 32.477808 ], [ -80.332603, 32.478105 ], [ -80.332402, 32.478167 ], [ -80.332188, 32.478185 ], [ -80.331572, 32.478474 ], [ -80.331317, 32.478495 ], [ -80.330774, 32.478787 ], [ -80.330553, 32.478843 ], [ -80.329872, 32.479277 ], [ -80.329492, 32.479453 ], [ -80.328667, 32.480023 ], [ -80.328107, 32.480298 ], [ -80.327456, 32.480763 ], [ -80.326765, 32.481187 ], [ -80.325665, 32.482042 ], [ -80.325331, 32.482266 ], [ -80.32519, 32.482405 ], [ -80.324402, 32.483013 ], [ -80.322788, 32.48419 ], [ -80.32266, 32.484341 ], [ -80.322003, 32.484801 ], [ -80.321327, 32.48524 ], [ -80.320588, 32.485615 ], [ -80.31941, 32.486388 ], [ -80.318673, 32.486765 ], [ -80.317849, 32.487336 ], [ -80.316321, 32.488317 ], [ -80.316193, 32.488469 ], [ -80.316037, 32.488592 ], [ -80.315244, 32.489196 ], [ -80.314577, 32.489645 ], [ -80.31444, 32.489787 ], [ -80.313972, 32.490157 ], [ -80.313319, 32.49062 ], [ -80.312541, 32.491239 ], [ -80.311562, 32.491934 ], [ -80.31094, 32.49243 ], [ -80.309442, 32.493442 ], [ -80.30853, 32.494207 ], [ -80.307393, 32.495023 ], [ -80.307252, 32.495162 ], [ -80.304857, 32.496955 ], [ -80.302653, 32.498377 ], [ -80.301508, 32.499185 ], [ -80.30114, 32.499373 ], [ -80.300167, 32.500074 ], [ -80.299643, 32.500386 ], [ -80.298988, 32.500848 ], [ -80.298298, 32.501273 ], [ -80.29681, 32.502295 ], [ -80.296027, 32.502909 ], [ -80.295176, 32.503453 ], [ -80.294356, 32.504027 ], [ -80.293107, 32.505017 ], [ -80.291444, 32.506426 ], [ -80.288622, 32.50891 ], [ -80.288058, 32.509464 ], [ -80.286514, 32.510713 ], [ -80.284757, 32.512025 ], [ -80.283447, 32.512948 ], [ -80.282125, 32.513859 ], [ -80.279071, 32.515826 ], [ -80.27811, 32.51654 ], [ -80.277985, 32.516695 ], [ -80.277949, 32.516939 ], [ -80.277978, 32.517532 ] ] } },
{ "type": "Feature", "properties": { "year": 2018, "source": "USGS lidar MHW", "uncertainty_m": 4.54501 }, "geometry": { "type": "LineString", "coordinates": [ [ -80.27693, 32.517595 ], [ -80.276411, 32.517912 ], [ -80.276092, 32.518151 ], [ -80.275802, 32.518421 ], [ -80.273051, 32.520239 ], [ -80.271177, 32.521438 ], [ -80.269542, 32.522616 ], [ -80.268353, 32.523383 ], [ -80.267653, 32.523794 ], [ -80.267329, 32.524034 ], [ -80.266311, 32.524693 ], [ -80.264205, 32.525921 ], [ -80.261829, 32.527128 ], [ -80.261303, 32.527435 ], [ -80.260548, 32.527776 ], [ -80.259876, 32.528224 ], [ -80.258283, 32.529126 ], [ -80.257096, 32.529896 ], [ -80.256686, 32.530355 ], [ -80.256381, 32.530618 ], [ -80.256256, 32.531118 ], [ -80.256228, 32.53141 ] ] } },
{ "type": "Feature", "properties": { "year": 2018, "source": "USGS lidar MHW", "uncertainty_m": 3.82707 }, "geometry": { "type": "LineString", "coordinates": [ [ -80.254943, 32.531724 ], [ -80.253962, 32.532101 ], [ -80.252333, 32.532626 ], [ -80.251558, 32.532941 ], [ -80.251008, 32.533218 ], [ -80.250507, 32.533558 ], [ -80.250359, 32.533696 ], [ -80.249333, 32.534344 ], [ -80.248558, 32.534989 ], [ -80.248123, 32.535414 ], [ -80.247461, 32.535876 ], [ -80.247086, 32.536049 ], [ -80.246472, 32.536242 ], [ -80.245709, 32.536573 ], [ -80.244619, 32.537139 ], [ -80.243559, 32.537744 ], [ -80.242611, 32.538163 ], [ -80.242074, 32.538457 ], [ -80.241762, 32.538711 ], [ -80.241237, 32.539021 ], [ -80.240448, 32.539648 ], [ -80.240313, 32.539801 ], [ -80.240153, 32.539924 ], [ -80.23982, 32.540152 ], [ -80.239117, 32.540561 ], [ -80.238965, 32.540693 ], [ -80.238744, 32.541066 ] ] } },
{ "type": "Feature", "properties": { "year": 2018, "source": "USGS lidar MHW", "uncertainty_m": 4.48467 }, "geometry": { "type": "LineString", "coordinates": [ [ -80.237918, 32.540985 ], [ -80.237666, 32.540987 ], [ -80.237464, 32.541056 ], [ -80.237296, 32.541168 ], [ -80.236847, 32.541576 ], [ -80.236479, 32.541757 ], [ -80.235791, 32.542185 ], [ -80.235427, 32.542373 ], [ -80.234574, 32.542917 ], [ -80.231672, 32.544432 ], [ -80.230923, 32.54478 ], [ -80.229672, 32.545467 ], [ -80.229158, 32.54579 ] ] } },
{ "type": "Feature", "properties": { "year": 2018, "source": "USGS lidar MHW", "uncertainty_m": 5.06709 }, "geometry": { "type": "LineString", "coordinates": [ [ -80.227693, 32.54653 ], [ -80.227511, 32.546623 ], [ -80.226897, 32.546817 ], [ -80.22613, 32.547142 ], [ -80.222392, 32.548892 ], [ -80.220675, 32.549634 ] ] } },
{ "type": "Feature", "properties": { "year": 2018, "source": "USGS lidar MHW", "uncertainty_m": 3.8828 }, "geometry": { "type": "LineString", "coordinates": [ [ -80.204752, 32.555891 ], [ -80.201524, 32.557288 ], [ -80.199577, 32.558021 ], [ -80.198829, 32.55837 ], [ -80.198662, 32.558493 ], [ -80.197718, 32.558913 ], [ -80.196685, 32.55917 ], [ -80.195, 32.55936 ] ] } }
]
}
