{
"type": "FeatureCollection",
"name": "counties",
"crs": { "type": "name", "properties": { "name": "urn:ogc:def:crs:OGC:1.3:CRS84" } },
"xy_coordinate_resolution": 1e-05,
"features": [
{ "type": "Feature", "properties": { "name": "Horry" }, "geometry": { "type": "Polygon", "coordinates": [ [ [ -79.33884, 33.97049 ], [ -79.3313, 33.979 ], [ -79.33144, 33.98774 ], [ -79.32843, 33.98676 ], [ -79.32866, 33.99252 ], [ -79.33164, 33.99132 ], [ -79.33246, 33.995 ], [ -79.32731, 33.99819 ], [ -79.32847, 34.00016 ], [ -79.32189, 34.00229 ], [ -79.32327, 34.00016 ], [ -79.3177, 33.99957 ], [ -79.31816, 33.99709 ], [ -79.31508, 33.99651 ], [ -79.31444, 34.00062 ], [ -79.30716, 34.00593 ], [ -79.30905, 34.00817 ], [ -79.30424, 34.02283 ], [ -79.30757, 34.02769 ], [ -79.30383, 34.02794 ], [ -79.30234, 34.03222 ], [ -79.29395, 34.03572 ], [ -79.28795, 34.03306 ], [ -79.2879, 34.0349 ], [ -79.28143, 34.03638 ], [ -79.28259, 34.03975 ], [ -79.27805, 34.03957 ], [ -79.27414, 34.04405 ], [ -79.26916, 34.04407 ], [ -79.26803, 34.04604 ], [ -79.26509, 34.04398 ], [ -79.25835, 34.0495 ], [ -79.25815, 34.05405 ], [ -79.24776, 34.05708 ], [ -79.24827, 34.06644 ], [ -79.24296, 34.06796 ], [ -79.23958, 34.07675 ], [ -79.23991, 34.07849 ], [ -79.24809, 34.07945 ], [ -79.24658, 34.0811 ], [ -79.24938, 34.08506 ], [ -79.24691, 34.0871 ], [ -79.25013, 34.09037 ], [ -79.24187, 34.09274 ], [ -79.24312, 34.09752 ], [ -79.23456, 34.10078 ], [ -79.2301, 34.10882 ], [ -79.22091, 34.10774 ], [ -79.21904, 34.11242 ], [ -79.22281, 34.1131 ], [ -79.21764, 34.12549 ], [ -79.21935, 34.12619 ], [ -79.21447, 34.13059 ], [ -79.2103, 34.12726 ], [ -79.20577, 34.13297 ], [ -79.20938, 34.1495 ], [ -79.20547, 34.15085 ], [ -79.20754, 34.15484 ], [ -79.20299, 34.15317 ], [ -79.2022, 34.15676 ], [ -79.19732, 34.15869 ], [ -79.19707, 34.16853 ], [ -79.19242, 34.17126 ], [ -79.19272, 34.17545 ], [ -79.17693, 34.18479 ], [ -79.17456, 34.18406 ], [ -79.17643, 34.1803 ], [ -79.17358, 34.17953 ], [ -79.16623, 34.19506 ], [ -79.15805, 34.20045 ], [ -79.15394, 34.20721 ], [ -79.14592, 34.20867 ], [ -79.14427, 34.20622 ], [ -79.14222, 34.21391 ], [ -79.13373, 34.21567 ], [ -79.13466, 34.22085 ], [ -79.13086, 34.22156 ], [ -79.13546, 34.22336 ], [ -79.13566, 34.22913 ], [ -79.13294, 34.23318 ], [ -79.12826, 34.23074 ], [ -79.12666, 34.23614 ], [ -79.13316, 34.23795 ], [ -79.13479, 34.24102 ], [ -79.12676, 34.24828 ], [ -79.12816, 34.25365 ], [ -79.12438, 34.25402 ], [ -79.1264, 34.25727 ], [ -79.12075, 34.25531 ], [ -79.1202, 34.25936 ], [ -79.11568, 34.26167 ], [ -79.11736, 34.26289 ], [ -79.11141, 34.26587 ], [ -79.10998, 34.27244 ], [ -79.10576, 34.27242 ], [ -79.10554, 34.27562 ], [ -79.10049, 34.27819 ], [ -79.10024, 34.27572 ], [ -79.09679, 34.27876 ], [ -79.09583, 34.27698 ], [ -79.09373, 34.27796 ], [ -79.09139, 34.28575 ], [ -79.08849, 34.28369 ], [ -79.08642, 34.28504 ], [ -79.08968, 34.28877 ], [ -79.08681, 34.2896 ], [ -79.08822, 34.29234 ], [ -79.08571, 34.29528 ], [ -79.07831, 34.29274 ], [ -79.0779, 34.29722 ], [ -79.07126, 34.29931 ], [ -78.54732, 33.85648 ], [ -78.55377, 33.85273 ], [ -78.55464, 33.84917 ], [ -78.59171, 33.84343 ], [ -78.66793, 33.81943 ], [ -78.6977, 33.808 ], [ -78.73624, 33.78964 ], [ -78.79579, 33.75506 ], [ -78.8438, 33.72133 ], [ -78.91406, 33.66162 ], [ -78.93843, 33.64001 ], [ -79.00178, 33.57268 ], [ -79.01138, 33.5727 ], [ -79.01568, 33.56911 ], [ -79.01669, 33.57228 ], [ -79.08652, 33.57127 ], [ -79.0874, 33.57291 ], [ -79.10107, 33.57297 ], [ -79.10218, 33.58167 ], [ -79.09829, 33.58786 ], [ -79.09679, 33.60035 ], [ -79.09982, 33.609 ], [ -79.10451, 33.61114 ], [ -79.10908, 33.60033 ], [ -79.12128, 33.60478 ], [ -79.1201, 33.60908 ], [ -79.12355, 33.6124 ], [ -79.12325, 33.62324 ], [ -79.12896, 33.62593 ], [ -79.12958, 33.63379 ], [ -79.13371, 33.63566 ], [ -79.13421, 33.63802 ], [ -79.12967, 33.64064 ], [ -79.13367, 33.64248 ], [ -79.13492, 33.64851 ], [ -79.13328, 33.6493 ], [ -79.12727, 33.64363 ], [ -79.12347, 33.64878 ], [ -79.12389, 33.65219 ], [ -79.12618, 33.65316 ], [ -79.12953, 33.65015 ], [ -79.13636, 33.66381 ], [ -79.14148, 33.65859 ], [ -79.1533, 33.65939 ], [ -79.15186, 33.6762 ], [ -79.15735, 33.68478 ], [ -79.16339, 33.68511 ], [ -79.16734, 33.68993 ], [ -79.17549, 33.69225 ], [ -79.18066, 33.69684 ], [ -79.17671, 33.70086 ], [ -79.19135, 33.70651 ], [ -79.19539, 33.71218 ], [ -79.19237, 33.72117 ], [ -79.1959, 33.72789 ], [ -79.20176, 33.73448 ], [ -79.2056, 33.73517 ], [ -79.20472, 33.73669 ], [ -79.20983, 33.74186 ], [ -79.21258, 33.74172 ], [ -79.2169, 33.74809 ], [ -79.22037, 33.74829 ], [ -79.21907, 33.75244 ], [ -79.21688, 33.75236 ], [ -79.21823, 33.7551 ], [ -79.22045, 33.75698 ], [ -79.22824, 33.75722 ], [ -79.22968, 33.76206 ], [ -79.23341, 33.7618 ], [ -79.23662, 33.77391 ], [ -79.24809, 33.78442 ], [ -79.25288, 33.79824 ], [ -79.25101, 33.80254 ], [ -79.25527, 33.80349 ], [ -79.25274, 33.80824 ], [ -79.26028, 33.81485 ], [ -79.26089, 33.81885 ], [ -79.25855, 33.8252 ], [ -79.25294, 33.82577 ], [ -79.24881, 33.83116 ], [ -79.25237, 33.83158 ], [ -79.25084, 33.83478 ], [ -79.26095, 33.8385 ], [ -79.26407, 33.84253 ], [ -79.25926, 33.84992 ], [ -79.26061, 33.86042 ], [ -79.25601, 33.86536 ], [ -79.25898, 33.87642 ], [ -79.25748, 33.87967 ], [ -79.26047, 33.87931 ], [ -79.26304, 33.88445 ], [ -79.2636, 33.89247 ], [ -79.28307, 33.90072 ], [ -79.28387, 33.89606 ], [ -79.28637, 33.89524 ], [ -79.29106, 33.9004 ], [ -79.29599, 33.9007 ], [ -79.29502, 33.90435 ], [ -79.29987, 33.90382 ], [ -79.29909, 33.90707 ], [ -79.30357, 33.91397 ], [ -79.31235, 33.91823 ], [ -79.31127, 33.9234 ], [ -79.30671, 33.9239 ], [ -79.31054, 33.92655 ], [ -79.31106, 33.92993 ], [ -79.30687, 33.93479 ], [ -79.31697, 33.93414 ], [ -79.31161, 33.94419 ], [ -79.32067, 33.94869 ], [ -79.3218, 33.94698 ], [ -79.32658, 33.95166 ], [ -79.3256, 33.95379 ], [ -79.32976, 33.95482 ], [ -79.32916, 33.95289 ], [ -79.33344, 33.95272 ], [ -79.33012, 33.96163 ], [ -79.33423, 33.96214 ], [ -79.33884, 33.97049 ] ] ] } },
{ "type": "Feature", "properties": { "name": "Beaufort" }, "geometry": { "type": "Polygon", "coordinates": [ [ [ -81.01611, 32.24429 ], [ -81.01039, 32.24985 ], [ -81.00493, 32.25069 ], [ -80.99565, 32.262 ], [ -80.99413, 32.26752 ], [ -80.99168, 32.26755 ], [ -80.99754, 32.28133 ], [ -80.99421, 32.29056 ], [ -80.99866, 32.29804 ], [ -81.00443, 32.3008 ], [ -81.00637, 32.30652 ], [ -80.98167, 32.30587 ], [ -80.93494, 32.30011 ], [ -80.93412, 32.32115 ], [ -80.92878, 32.3313 ], [ -80.92791, 32.3431 ], [ -80.92446, 32.35029 ], [ -80.91058, 32.35425 ], [ -80.89205, 32.35373 ], [ -80.89088, 32.34754 ], [ -80.87759, 32.3459 ], [ -80.87434, 32.35923 ], [ -80.86849, 32.36373 ], [ -80.87372, 32.36906 ], [ -80.86151, 32.37351 ], [ -80.85881, 32.3797 ], [ -80.85056, 32.37936 ], [ -80.84785, 32.38394 ], [ -80.84194, 32.3849 ], [ -80.84233, 32.39469 ], [ -80.82924, 32.41147 ], [ -80.83765, 32.41504 ], [ -80.84797, 32.41164 ], [ -80.8502, 32.41631 ], [ -80.84773, 32.42899 ], [ -80.83393, 32.45689 ], [ -80.83017, 32.46209 ], [ -80.81869, 32.46393 ], [ -80.81773, 32.46569 ], [ -80.82023, 32.49079 ], [ -80.83601, 32.51816 ], [ -80.84773, 32.53006 ], [ -80.83785, 32.53928 ], [ -80.83598, 32.54404 ], [ -80.83921, 32.55751 ], [ -80.83508, 32.56419 ], [ -80.836, 32.57877 ], [ -80.83154, 32.59339 ], [ -80.83559, 32.59928 ], [ -80.83655, 32.60884 ], [ -80.84994, 32.61652 ], [ -80.84584, 32.62513 ], [ -80.84943, 32.6302 ], [ -80.8483, 32.63255 ], [ -80.85235, 32.63222 ], [ -80.85308, 32.63481 ], [ -80.8549, 32.63335 ], [ -80.85608, 32.63476 ], [ -80.85465, 32.63609 ], [ -80.8634, 32.64621 ], [ -80.8697, 32.66094 ], [ -80.83721, 32.69982 ], [ -80.83015, 32.70364 ], [ -80.82631, 32.70432 ], [ -80.82529, 32.70003 ], [ -80.82156, 32.69893 ], [ -80.82273, 32.6969 ], [ -80.82094, 32.69624 ], [ -80.81819, 32.69848 ], [ -80.81301, 32.69503 ], [ -80.81136, 32.69743 ], [ -80.80735, 32.69395 ], [ -80.80924, 32.69268 ], [ -80.80788, 32.68944 ], [ -80.8025, 32.69091 ], [ -80.80003, 32.68686 ], [ -80.79656, 32.68837 ], [ -80.7947, 32.68617 ], [ -80.79245, 32.68797 ], [ -80.79025, 32.68491 ], [ -80.78748, 32.68822 ], [ -80.78726, 32.68248 ], [ -80.78382, 32.68402 ], [ -80.78126, 32.68179 ], [ -80.78086, 32.68564 ], [ -80.77831, 32.68692 ], [ -80.77618, 32.68458 ], [ -80.77782, 32.68073 ], [ -80.77266, 32.67624 ], [ -80.76863, 32.68148 ], [ -80.76562, 32.67527 ], [ -80.75973, 32.67956 ], [ -80.75317, 32.67438 ], [ -80.74489, 32.67423 ], [ -80.73924, 32.6823 ], [ -80.73341, 32.6808 ], [ -80.72853, 32.67366 ], [ -80.72162, 32.68024 ], [ -80.71835, 32.6795 ], [ -80.71558, 32.67315 ], [ -80.7065, 32.67324 ], [ -80.70333, 32.66459 ], [ -80.69004, 32.66727 ], [ -80.68587, 32.67281 ], [ -80.67115, 32.67164 ], [ -80.66814, 32.66749 ], [ -80.66885, 32.66357 ], [ -80.67106, 32.66164 ], [ -80.68053, 32.66285 ], [ -80.68434, 32.659 ], [ -80.68162, 32.64708 ], [ -80.67628, 32.64249 ], [ -80.66405, 32.64566 ], [ -80.65812, 32.63761 ], [ -80.66067, 32.63386 ], [ -80.67396, 32.63291 ], [ -80.67515, 32.62518 ], [ -80.66996, 32.62246 ], [ -80.65975, 32.62812 ], [ -80.6544, 32.62688 ], [ -80.65515, 32.62217 ], [ -80.66066, 32.61514 ], [ -80.65975, 32.61268 ], [ -80.64783, 32.59637 ], [ -80.63084, 32.59172 ], [ -80.62536, 32.58234 ], [ -80.61867, 32.58224 ], [ -80.60991, 32.59003 ], [ -80.60723, 32.58916 ], [ -80.60322, 32.58178 ], [ -80.59979, 32.58105 ], [ -80.58636, 32.58617 ], [ -80.57984, 32.58427 ], [ -80.57595, 32.58106 ], [ -80.57617, 32.57776 ], [ -80.58421, 32.56773 ], [ -80.57655, 32.56507 ], [ -80.56522, 32.56549 ], [ -80.56843, 32.55656 ], [ -80.56602, 32.55094 ], [ -80.56244, 32.55096 ], [ -80.55894, 32.55521 ], [ -80.5574, 32.5662 ], [ -80.5515, 32.56577 ], [ -80.54109, 32.54548 ], [ -80.53648, 32.52922 ], [ -80.52972, 32.52275 ], [ -80.51776, 32.51914 ], [ -80.50294, 32.49565 ], [ -80.47704, 32.48545 ], [ -80.4813, 32.47559 ], [ -80.47688, 32.46791 ], [ -80.48462, 32.46098 ], [ -80.47941, 32.44575 ], [ -80.46964, 32.43376 ], [ -80.46153, 32.41289 ], [ -80.4575, 32.41026 ], [ -80.443, 32.41127 ], [ -80.44075, 32.41337 ], [ -80.43557, 32.41246 ], [ -80.42922, 32.40555 ], [ -80.42929, 32.38967 ], [ -80.44421, 32.35493 ], [ -80.454, 32.33927 ], [ -80.45893, 32.34116 ], [ -80.46364, 32.34011 ], [ -80.46439, 32.33616 ], [ -80.45506, 32.32679 ], [ -80.4533, 32.32191 ], [ -80.49938, 32.30614 ], [ -80.50388, 32.30749 ], [ -80.53877, 32.29028 ], [ -80.54447, 32.29032 ], [ -80.54864, 32.2856 ], [ -80.57624, 32.27529 ], [ -80.58147, 32.27649 ], [ -80.58846, 32.28266 ], [ -80.60641, 32.27251 ], [ -80.60902, 32.26789 ], [ -80.62369, 32.25806 ], [ -80.63297, 32.25693 ], [ -80.64539, 32.26085 ], [ -80.64646, 32.26507 ], [ -80.64301, 32.27281 ], [ -80.64479, 32.2915 ], [ -80.66825, 32.29784 ], [ -80.67379, 32.29642 ], [ -80.68853, 32.30285 ], [ -80.69847, 32.31066 ], [ -80.69965, 32.31523 ], [ -80.70815, 32.32373 ], [ -80.7146, 32.32566 ], [ -80.72222, 32.3247 ], [ -80.73364, 32.31947 ], [ -80.73881, 32.31377 ], [ -80.73712, 32.30603 ], [ -80.741, 32.30378 ], [ -80.75345, 32.30682 ], [ -80.76604, 32.29261 ], [ -80.76542, 32.28597 ], [ -80.76126, 32.28004 ], [ -80.74236, 32.26377 ], [ -80.73808, 32.26417 ], [ -80.73012, 32.2705 ], [ -80.7178, 32.26697 ], [ -80.67785, 32.23641 ], [ -80.66788, 32.22068 ], [ -80.66917, 32.21678 ], [ -80.68628, 32.20321 ], [ -80.70019, 32.18834 ], [ -80.72152, 32.16069 ], [ -80.73994, 32.14613 ], [ -80.8125, 32.10975 ], [ -80.82153, 32.10859 ], [ -80.82839, 32.11322 ], [ -80.84242, 32.11784 ], [ -80.84801, 32.10889 ], [ -80.8738, 32.0823 ], [ -80.89113, 32.08141 ], [ -80.9038, 32.07689 ], [ -80.91054, 32.07992 ], [ -80.9117, 32.0854 ], [ -80.8966, 32.10254 ], [ -80.89566, 32.1077 ], [ -80.90057, 32.11162 ], [ -80.92693, 32.11945 ], [ -80.92831, 32.12141 ], [ -80.92677, 32.12403 ], [ -80.91262, 32.1276 ], [ -80.90725, 32.13101 ], [ -80.90946, 32.13474 ], [ -80.91506, 32.13484 ], [ -80.92116, 32.13005 ], [ -80.92496, 32.13108 ], [ -80.92853, 32.13858 ], [ -80.93405, 32.13507 ], [ -80.94132, 32.13733 ], [ -80.94691, 32.12885 ], [ -80.95344, 32.13156 ], [ -80.96147, 32.12622 ], [ -80.9619, 32.13325 ], [ -80.958, 32.13773 ], [ -80.96725, 32.14073 ], [ -80.96896, 32.14767 ], [ -80.96494, 32.15177 ], [ -80.96102, 32.15188 ], [ -80.95954, 32.14597 ], [ -80.95302, 32.14155 ], [ -80.95096, 32.14542 ], [ -80.95435, 32.14892 ], [ -80.95033, 32.15649 ], [ -80.95051, 32.16126 ], [ -80.95762, 32.16504 ], [ -80.94842, 32.16739 ], [ -80.94859, 32.16908 ], [ -80.95411, 32.17536 ], [ -80.96023, 32.17395 ], [ -80.96182, 32.17947 ], [ -80.96932, 32.17621 ], [ -80.96858, 32.18026 ], [ -80.96207, 32.18206 ], [ -80.96239, 32.18496 ], [ -80.9689, 32.1831 ], [ -80.97109, 32.18552 ], [ -80.97659, 32.18526 ], [ -80.98005, 32.19043 ], [ -80.98518, 32.18856 ], [ -80.98693, 32.19337 ], [ -80.98846, 32.1897 ], [ -80.99381, 32.18796 ], [ -80.99044, 32.19023 ], [ -81.00014, 32.19612 ], [ -80.99423, 32.19738 ], [ -80.99757, 32.19808 ], [ -80.99614, 32.2006 ], [ -80.99824, 32.2046 ], [ -81.00055, 32.20692 ], [ -81.00395, 32.20649 ], [ -81.00596, 32.21146 ], [ -81.00996, 32.21341 ], [ -81.00658, 32.21319 ], [ -81.00615, 32.21587 ], [ -81.00902, 32.21481 ], [ -81.00961, 32.21668 ], [ -81.00756, 32.21909 ], [ -81.01237, 32.21823 ], [ -81.01432, 32.23096 ], [ -81.01245, 32.23623 ], [ -81.01611, 32.24429 ] ] ] } },
{ "type": "Feature", "properties": { "name": "Georgetown" }, "geometry": { "type": "Polygon", "coordinates": [ [ [ -79.68088, 33.3196 ], [ -79.67725, 33.33676 ], [ -79.65347, 33.36065 ], [ -79.6338, 33.37263 ], [ -79.62559, 33.38972 ], [ -79.60259, 33.41828 ], [ -79.59599, 33.42155 ], [ -79.59011, 33.44354 ], [ -79.54499, 33.48722 ], [ -79.54529, 33.4909 ], [ -79.53808, 33.4969 ], [ -79.49631, 33.51747 ], [ -79.48333, 33.53677 ], [ -79.43589, 33.57251 ], [ -79.43364, 33.57671 ], [ -79.44247, 33.59596 ], [ -79.43028, 33.62902 ], [ -79.41984, 33.64847 ], [ -79.4185, 33.66729 ], [ -79.41109, 33.68583 ], [ -79.39235, 33.71218 ], [ -79.37468, 33.72477 ], [ -79.3596, 33.74011 ], [ -79.34655, 33.75533 ], [ -79.33876, 33.77358 ], [ -79.33244, 33.77705 ], [ -79.31704, 33.77988 ], [ -79.30883, 33.77197 ], [ -79.30468, 33.76345 ], [ -79.29331, 33.75228 ], [ -79.29398, 33.74114 ], [ -79.28625, 33.73739 ], [ -79.29139, 33.73239 ], [ -79.29157, 33.72898 ], [ -79.28717, 33.71881 ], [ -79.28052, 33.71632 ], [ -79.27106, 33.72164 ], [ -79.26992, 33.71681 ], [ -79.27493, 33.71432 ], [ -79.27506, 33.70885 ], [ -79.26501, 33.71028 ], [ -79.26759, 33.7034 ], [ -79.24977, 33.70342 ], [ -79.24241, 33.7059 ], [ -79.24064, 33.7026 ], [ -79.24734, 33.70082 ], [ -79.24931, 33.69698 ], [ -79.23471, 33.69424 ], [ -79.23059, 33.69876 ], [ -79.22652, 33.69656 ], [ -79.22518, 33.69913 ], [ -79.21653, 33.70165 ], [ -79.21937, 33.70475 ], [ -79.21798, 33.70578 ], [ -79.21284, 33.70006 ], [ -79.20686, 33.7034 ], [ -79.19623, 33.70134 ], [ -79.19516, 33.70344 ], [ -79.20087, 33.70817 ], [ -79.19943, 33.7101 ], [ -79.19242, 33.7057 ], [ -79.17829, 33.70219 ], [ -79.17675, 33.69931 ], [ -79.18026, 33.69543 ], [ -79.16734, 33.68993 ], [ -79.16339, 33.68511 ], [ -79.15735, 33.68478 ], [ -79.15186, 33.6762 ], [ -79.1533, 33.65939 ], [ -79.14148, 33.65859 ], [ -79.13636, 33.66381 ], [ -79.12953, 33.65015 ], [ -79.12618, 33.65316 ], [ -79.12389, 33.65219 ], [ -79.12347, 33.64878 ], [ -79.12727, 33.64363 ], [ -79.13328, 33.6493 ], [ -79.13511, 33.6467 ], [ -79.13367, 33.64248 ], [ -79.12967, 33.64064 ], [ -79.13421, 33.63802 ], [ -79.12958, 33.63379 ], [ -79.12896, 33.62593 ], [ -79.12325, 33.62324 ], [ -79.12355, 33.6124 ], [ -79.1201, 33.60908 ], [ -79.12217, 33.60571 ], [ -79.10908, 33.60033 ], [ -79.10451, 33.61114 ], [ -79.09982, 33.609 ], [ -79.09679, 33.60035 ], [ -79.09829, 33.58786 ], [ -79.10218, 33.58167 ], [ -79.10107, 33.57297 ], [ -79.0874, 33.57291 ], [ -79.08652, 33.57127 ], [ -79.01669, 33.57228 ], [ -79.01568, 33.56911 ], [ -79.01138, 33.5727 ], [ -79.00178, 33.57268 ], [ -79.01189, 33.56073 ], [ -79.02863, 33.53341 ], [ -79.0388, 33.5315 ], [ -79.04396, 33.51922 ], [ -79.08459, 33.48367 ], [ -79.11536, 33.43914 ], [ -79.13544, 33.40387 ], [ -79.1475, 33.37824 ], [ -79.15852, 33.33674 ], [ -79.16267, 33.33118 ], [ -79.17211, 33.32912 ], [ -79.17213, 33.32517 ], [ -79.16555, 33.31855 ], [ -79.16376, 33.31205 ], [ -79.17164, 33.29522 ], [ -79.18032, 33.25414 ], [ -79.18056, 33.23796 ], [ -79.17571, 33.21106 ], [ -79.1832, 33.19694 ], [ -79.1832, 33.19077 ], [ -79.19449, 33.16979 ], [ -79.22373, 33.14979 ], [ -79.24642, 33.12601 ], [ -79.27558, 33.11677 ], [ -79.26795, 33.13271 ], [ -79.27241, 33.13965 ], [ -79.29125, 33.14656 ], [ -79.31509, 33.14572 ], [ -79.33207, 33.15269 ], [ -79.35129, 33.15352 ], [ -79.35789, 33.15933 ], [ -79.37371, 33.16649 ], [ -79.38345, 33.17516 ], [ -79.3944, 33.17804 ], [ -79.40403, 33.18378 ], [ -79.41434, 33.19901 ], [ -79.42298, 33.20277 ], [ -79.42748, 33.20978 ], [ -79.43775, 33.21524 ], [ -79.44701, 33.21338 ], [ -79.45509, 33.21773 ], [ -79.45172, 33.22541 ], [ -79.45566, 33.2292 ], [ -79.46203, 33.22939 ], [ -79.45759, 33.23265 ], [ -79.45873, 33.23522 ], [ -79.47393, 33.22977 ], [ -79.47445, 33.23215 ], [ -79.46905, 33.23652 ], [ -79.47065, 33.23941 ], [ -79.4787, 33.23508 ], [ -79.48288, 33.23544 ], [ -79.47808, 33.24327 ], [ -79.47928, 33.24607 ], [ -79.48264, 33.24592 ], [ -79.48904, 33.23684 ], [ -79.49399, 33.23603 ], [ -79.51648, 33.24559 ], [ -79.53018, 33.24747 ], [ -79.53542, 33.24961 ], [ -79.53704, 33.25291 ], [ -79.54583, 33.25481 ], [ -79.54976, 33.26498 ], [ -79.55556, 33.26136 ], [ -79.56109, 33.26148 ], [ -79.55767, 33.26859 ], [ -79.56225, 33.27252 ], [ -79.59555, 33.27929 ], [ -79.60657, 33.27932 ], [ -79.61258, 33.28515 ], [ -79.63099, 33.29293 ], [ -79.66425, 33.29832 ], [ -79.67701, 33.30494 ], [ -79.67275, 33.31066 ], [ -79.68088, 33.3196 ] ] ] } },
{ "type": "Feature", "properties": { "name": "Berkeley" }, "geometry": { "type": "Polygon", "coordinates": [ [ [ -80.36185, 33.25744 ], [ -80.35735, 33.27477 ], [ -80.34893, 33.27802 ], [ -80.33766, 33.27587 ], [ -80.3172, 33.26412 ], [ -80.30194, 33.26746 ], [ -80.29448, 33.27126 ], [ -80.28927, 33.27911 ], [ -80.2726, 33.28573 ], [ -80.2702, 33.29043 ], [ -80.26351, 33.29232 ], [ -80.25564, 33.3 ], [ -80.25384, 33.29926 ], [ -80.2525, 33.31958 ], [ -80.24729, 33.32869 ], [ -80.2479, 33.33816 ], [ -80.23962, 33.3522 ], [ -80.24156, 33.38308 ], [ -80.23846, 33.39115 ], [ -80.23024, 33.3841 ], [ -80.22988, 33.39157 ], [ -80.22257, 33.39129 ], [ -80.22189, 33.40454 ], [ -80.2252, 33.40934 ], [ -80.22473, 33.42548 ], [ -80.22149, 33.43458 ], [ -80.22236, 33.44776 ], [ -80.20402, 33.44187 ], [ -80.20816, 33.45229 ], [ -80.1981, 33.45158 ], [ -80.20014, 33.44583 ], [ -80.19752, 33.44364 ], [ -80.18679, 33.45052 ], [ -80.18166, 33.44849 ], [ -80.18314, 33.45253 ], [ -80.18102, 33.45463 ], [ -80.17719, 33.45313 ], [ -80.17568, 33.44861 ], [ -80.17056, 33.44974 ], [ -80.16273, 33.4607 ], [ -80.15854, 33.45703 ], [ -80.16146, 33.44895 ], [ -80.154, 33.44793 ], [ -80.14831, 33.44987 ], [ -80.14861, 33.45518 ], [ -80.15187, 33.45691 ], [ -80.15067, 33.46027 ], [ -80.14416, 33.45835 ], [ -80.1392, 33.45398 ], [ -80.1384, 33.45871 ], [ -80.14342, 33.46098 ], [ -80.14424, 33.46411 ], [ -80.13875, 33.46506 ], [ -80.13512, 33.46108 ], [ -80.13176, 33.46341 ], [ -80.14822, 33.47402 ], [ -80.15205, 33.47857 ], [ -80.15208, 33.48542 ], [ -80.14925, 33.48684 ], [ -80.1441, 33.48439 ], [ -80.13653, 33.48818 ], [ -80.13365, 33.49286 ], [ -80.12729, 33.49327 ], [ -80.12764, 33.50017 ], [ -80.12555, 33.50243 ], [ -80.11312, 33.49878 ], [ -80.10668, 33.49987 ], [ -80.10442, 33.49705 ], [ -80.09594, 33.49961 ], [ -80.09587, 33.49545 ], [ -80.09306, 33.49889 ], [ -80.09383, 33.50296 ], [ -80.08466, 33.49998 ], [ -80.07989, 33.50687 ], [ -80.04865, 33.50637 ], [ -80.04248, 33.50095 ], [ -80.03656, 33.50683 ], [ -80.03326, 33.50571 ], [ -80.03172, 33.50091 ], [ -80.02526, 33.50644 ], [ -80.02056, 33.50218 ], [ -80.02048, 33.49842 ], [ -80.01661, 33.50017 ], [ -80.01396, 33.5051 ], [ -80.00536, 33.50254 ], [ -80.00445, 33.49573 ], [ -80.00189, 33.49472 ], [ -79.9969, 33.49922 ], [ -80.00035, 33.50559 ], [ -79.99623, 33.50684 ], [ -79.99186, 33.5046 ], [ -79.98979, 33.4983 ], [ -79.98224, 33.49967 ], [ -79.97548, 33.49762 ], [ -79.97196, 33.50094 ], [ -79.96456, 33.49864 ], [ -79.96089, 33.49445 ], [ -79.95293, 33.49137 ], [ -79.95157, 33.48691 ], [ -79.94115, 33.48083 ], [ -79.94011, 33.47573 ], [ -79.93477, 33.47773 ], [ -79.9279, 33.4704 ], [ -79.91539, 33.46418 ], [ -79.91023, 33.45571 ], [ -79.90215, 33.45535 ], [ -79.90312, 33.45043 ], [ -79.89957, 33.45452 ], [ -79.89415, 33.45365 ], [ -79.89004, 33.44856 ], [ -79.88015, 33.44282 ], [ -79.87632, 33.43531 ], [ -79.86822, 33.43448 ], [ -79.86854, 33.42927 ], [ -79.87867, 33.42706 ], [ -79.87752, 33.42444 ], [ -79.87157, 33.42392 ], [ -79.86778, 33.41993 ], [ -79.8613, 33.41779 ], [ -79.86079, 33.40851 ], [ -79.85499, 33.40635 ], [ -79.85477, 33.40292 ], [ -79.84022, 33.39801 ], [ -79.83582, 33.39055 ], [ -79.81386, 33.38232 ], [ -79.80827, 33.37328 ], [ -79.8008, 33.37263 ], [ -79.79497, 33.37795 ], [ -79.7904, 33.37316 ], [ -79.78416, 33.37613 ], [ -79.78645, 33.37202 ], [ -79.78164, 33.36822 ], [ -79.78167, 33.36396 ], [ -79.7783, 33.36193 ], [ -79.77855, 33.35915 ], [ -79.77177, 33.35616 ], [ -79.76786, 33.34975 ], [ -79.76792, 33.34461 ], [ -79.76139, 33.34225 ], [ -79.76153, 33.33557 ], [ -79.75445, 33.33447 ], [ -79.75542, 33.32945 ], [ -79.7498, 33.33036 ], [ -79.7442, 33.32744 ], [ -79.74115, 33.32231 ], [ -79.73481, 33.32017 ], [ -79.72683, 33.32212 ], [ -79.7192, 33.31863 ], [ -79.70958, 33.32125 ], [ -79.66425, 33.29832 ], [ -79.63099, 33.29293 ], [ -79.61258, 33.28515 ], [ -79.60657, 33.27932 ], [ -79.59555, 33.27929 ], [ -79.56225, 33.27252 ], [ -79.55767, 33.26859 ], [ -79.56102, 33.26232 ], [ -79.55981, 33.26048 ], [ -79.54976, 33.26498 ], [ -79.54583, 33.25481 ], [ -79.53704, 33.25291 ], [ -79.53542, 33.24961 ], [ -79.53018, 33.24747 ], [ -79.51648, 33.24559 ], [ -79.49399, 33.23603 ], [ -79.48904, 33.23684 ], [ -79.48264, 33.24592 ], [ -79.47928, 33.24607 ], [ -79.47808, 33.24327 ], [ -79.48288, 33.23544 ], [ -79.4787, 33.23508 ], [ -79.47065, 33.23941 ], [ -79.46905, 33.23652 ], [ -79.47445, 33.23215 ], [ -79.47393, 33.22977 ], [ -79.45873, 33.23522 ], [ -79.45759, 33.23265 ], [ -79.46203, 33.22939 ], [ -79.45373, 33.22784 ], [ -79.45207, 33.22267 ], [ -79.45509, 33.21773 ], [ -79.44665, 33.21182 ], [ -79.45029, 33.20733 ], [ -79.45885, 33.21035 ], [ -79.46244, 33.2075 ], [ -79.46661, 33.20918 ], [ -79.46779, 33.20654 ], [ -79.47097, 33.2104 ], [ -79.47402, 33.21034 ], [ -79.47823, 33.20751 ], [ -79.47796, 33.20302 ], [ -79.48367, 33.20381 ], [ -79.48257, 33.19835 ], [ -79.48637, 33.19237 ], [ -79.49088, 33.19372 ], [ -79.49282, 33.19182 ], [ -79.49754, 33.17699 ], [ -79.50446, 33.17705 ], [ -79.50391, 33.17295 ], [ -79.513, 33.16616 ], [ -79.51205, 33.15808 ], [ -79.52196, 33.1467 ], [ -79.53395, 33.14403 ], [ -79.54996, 33.15562 ], [ -79.56046, 33.1564 ], [ -79.57139, 33.14986 ], [ -79.59552, 33.14337 ], [ -79.59987, 33.13401 ], [ -79.60909, 33.13312 ], [ -79.61251, 33.13832 ], [ -79.62091, 33.13598 ], [ -79.62804, 33.12888 ], [ -79.63431, 33.12903 ], [ -79.64233, 33.12439 ], [ -79.6605, 33.09083 ], [ -79.67466, 33.08046 ], [ -79.69867, 33.05499 ], [ -79.70303, 33.04593 ], [ -79.7164, 33.03856 ], [ -79.7303, 33.01264 ], [ -79.74304, 33.00538 ], [ -79.76211, 32.98909 ], [ -79.7693, 32.97157 ], [ -79.76345, 32.95634 ], [ -79.76767, 32.95486 ], [ -79.77163, 32.94185 ], [ -79.78139, 32.94378 ], [ -79.80387, 32.92875 ], [ -79.81485, 32.92696 ], [ -79.82577, 32.91828 ], [ -79.83707, 32.91821 ], [ -79.84057, 32.91273 ], [ -79.83956, 32.90462 ], [ -79.84189, 32.89676 ], [ -79.85296, 32.8761 ], [ -79.85908, 32.87096 ], [ -79.88539, 32.86577 ], [ -79.89619, 32.86002 ], [ -79.89848, 32.85515 ], [ -79.89515, 32.84312 ], [ -79.89625, 32.83115 ], [ -79.9113, 32.81932 ], [ -79.9192, 32.81899 ], [ -79.93043, 32.82635 ], [ -79.93142, 32.84982 ], [ -79.93925, 32.85453 ], [ -79.95396, 32.85794 ], [ -79.95945, 32.86363 ], [ -79.964, 32.87435 ], [ -79.96476, 32.88282 ], [ -79.96112, 32.89446 ], [ -79.94743, 32.90765 ], [ -79.9511, 32.91021 ], [ -80.01177, 32.89988 ], [ -80.04149, 32.95501 ], [ -80.04006, 32.98275 ], [ -80.04583, 32.98503 ], [ -80.05602, 32.99936 ], [ -80.09822, 32.98811 ], [ -80.10507, 32.99249 ], [ -80.10241, 32.99553 ], [ -80.10492, 32.99601 ], [ -80.10271, 33.00132 ], [ -80.10803, 32.99976 ], [ -80.10815, 33.0016 ], [ -80.11043, 33.00216 ], [ -80.11336, 32.99806 ], [ -80.33594, 33.14546 ], [ -80.31815, 33.1549 ], [ -80.31763, 33.15705 ], [ -80.31096, 33.15835 ], [ -80.29635, 33.17945 ], [ -80.30853, 33.18784 ], [ -80.3088, 33.19043 ], [ -80.32469, 33.19852 ], [ -80.33082, 33.19842 ], [ -80.33646, 33.21538 ], [ -80.3354, 33.22449 ], [ -80.34686, 33.23608 ], [ -80.34841, 33.24892 ], [ -80.36185, 33.25744 ] ] ] } },
{ "type": "Feature", "properties": { "name": "Colleton" }, "geometry": { "type": "Polygon", "coordinates": [ [ [ -81.08229, 33.02663 ], [ -80.93716, 33.10258 ], [ -80.93163, 33.09826 ], [ -80.92705, 33.08575 ], [ -80.91707, 33.07913 ], [ -80.9161, 33.07189 ], [ -80.90745, 33.066 ], [ -80.90602, 33.06023 ], [ -80.89607, 33.06141 ], [ -80.89056, 33.07808 ], [ -80.88223, 33.0897 ], [ -80.8769, 33.09318 ], [ -80.88129, 33.09851 ], [ -80.88903, 33.10221 ], [ -80.88785, 33.11227 ], [ -80.89543, 33.12535 ], [ -80.79082, 33.18117 ], [ -80.79197, 33.17617 ], [ -80.78254, 33.17464 ], [ -80.77908, 33.17677 ], [ -80.77649, 33.17305 ], [ -80.772, 33.17156 ], [ -80.765, 33.17461 ], [ -80.76217, 33.17034 ], [ -80.75729, 33.17163 ], [ -80.75868, 33.17467 ], [ -80.75042, 33.17268 ], [ -80.74611, 33.17453 ], [ -80.7475, 33.17222 ], [ -80.74374, 33.16819 ], [ -80.73445, 33.17005 ], [ -80.72088, 33.16126 ], [ -80.71546, 33.16052 ], [ -80.71257, 33.15381 ], [ -80.71071, 33.15345 ], [ -80.70974, 33.15647 ], [ -80.70306, 33.15248 ], [ -80.70617, 33.1499 ], [ -80.70527, 33.14701 ], [ -80.69165, 33.13752 ], [ -80.6935, 33.13237 ], [ -80.68939, 33.13024 ], [ -80.69304, 33.1287 ], [ -80.68944, 33.1287 ], [ -80.68509, 33.12378 ], [ -80.68117, 33.12445 ], [ -80.67861, 33.12159 ], [ -80.67825, 33.11565 ], [ -80.6721, 33.11318 ], [ -80.67404, 33.10981 ], [ -80.67044, 33.10355 ], [ -80.65961, 33.0976 ], [ -80.66135, 33.09459 ], [ -80.65798, 33.09226 ], [ -80.65322, 33.09317 ], [ -80.64019, 33.08068 ], [ -80.63586, 33.08082 ], [ -80.63238, 33.07628 ], [ -80.62726, 33.07593 ], [ -80.62941, 33.07277 ], [ -80.6227, 33.06626 ], [ -80.604, 33.06176 ], [ -80.60058, 33.06267 ], [ -80.59149, 33.05782 ], [ -80.57848, 33.05725 ], [ -80.57794, 33.06053 ], [ -80.57057, 33.05769 ], [ -80.57103, 33.05943 ], [ -80.56801, 33.06037 ], [ -80.55879, 33.05982 ], [ -80.55321, 33.06193 ], [ -80.55304, 33.05931 ], [ -80.5503, 33.05833 ], [ -80.5445, 33.06224 ], [ -80.54752, 33.06275 ], [ -80.54744, 33.06575 ], [ -80.54436, 33.06383 ], [ -80.54227, 33.06621 ], [ -80.54023, 33.06431 ], [ -80.53783, 33.066 ], [ -80.53977, 33.06813 ], [ -80.53832, 33.06996 ], [ -80.53201, 33.06965 ], [ -80.52731, 33.06631 ], [ -80.52834, 33.06339 ], [ -80.52606, 33.06118 ], [ -80.52038, 33.06204 ], [ -80.50968, 33.05726 ], [ -80.49459, 33.05967 ], [ -80.49683, 33.06317 ], [ -80.49117, 33.06379 ], [ -80.48959, 33.06198 ], [ -80.47541, 33.05995 ], [ -80.47479, 33.06439 ], [ -80.46151, 33.06229 ], [ -80.45958, 33.06374 ], [ -80.45552, 33.05899 ], [ -80.45174, 33.06023 ], [ -80.45207, 33.0622 ], [ -80.44788, 33.0581 ], [ -80.44891, 33.05455 ], [ -80.44459, 33.05579 ], [ -80.4408, 33.05327 ], [ -80.4423, 33.05173 ], [ -80.43996, 33.04901 ], [ -80.43738, 33.05322 ], [ -80.42475, 33.05148 ], [ -80.42187, 33.05492 ], [ -80.41202, 33.0466 ], [ -80.40427, 33.04943 ], [ -80.40312, 33.05308 ], [ -80.4007, 33.05278 ], [ -80.38969, 33.04299 ], [ -80.38782, 33.03284 ], [ -80.39557, 33.02437 ], [ -80.40648, 33.01901 ], [ -80.40692, 33.01035 ], [ -80.4038, 33.0084 ], [ -80.40785, 33.00458 ], [ -80.40585, 32.99984 ], [ -80.41079, 32.99352 ], [ -80.40927, 32.98997 ], [ -80.41231, 32.98603 ], [ -80.4087, 32.98461 ], [ -80.41427, 32.98417 ], [ -80.41367, 32.97906 ], [ -80.41865, 32.97535 ], [ -80.41791, 32.9713 ], [ -80.4152, 32.9732 ], [ -80.41367, 32.9715 ], [ -80.41881, 32.96726 ], [ -80.41142, 32.95768 ], [ -80.40919, 32.95814 ], [ -80.40764, 32.95271 ], [ -80.40771, 32.95529 ], [ -80.40522, 32.95513 ], [ -80.40733, 32.94605 ], [ -80.40261, 32.94699 ], [ -80.40279, 32.9414 ], [ -80.39941, 32.93604 ], [ -80.39836, 32.9269 ], [ -80.40645, 32.91023 ], [ -80.4021, 32.90774 ], [ -80.40123, 32.90034 ], [ -80.39726, 32.90077 ], [ -80.39526, 32.89713 ], [ -80.39746, 32.89385 ], [ -80.39292, 32.89415 ], [ -80.39289, 32.89596 ], [ -80.39148, 32.8946 ], [ -80.39308, 32.89233 ], [ -80.38534, 32.88612 ], [ -80.3962, 32.88305 ], [ -80.39443, 32.87968 ], [ -80.39887, 32.87778 ], [ -80.39923, 32.87321 ], [ -80.40326, 32.86964 ], [ -80.40263, 32.86587 ], [ -80.3993, 32.86445 ], [ -80.40136, 32.85666 ], [ -80.39943, 32.84574 ], [ -80.39414, 32.8445 ], [ -80.39717, 32.84199 ], [ -80.39572, 32.84025 ], [ -80.4044, 32.8226 ], [ -80.40541, 32.81497 ], [ -80.41118, 32.809 ], [ -80.40992, 32.80654 ], [ -80.41409, 32.80884 ], [ -80.41475, 32.80256 ], [ -80.41828, 32.80514 ], [ -80.42108, 32.79838 ], [ -80.42616, 32.79793 ], [ -80.43581, 32.78819 ], [ -80.43223, 32.78326 ], [ -80.43293, 32.77848 ], [ -80.43848, 32.77274 ], [ -80.43658, 32.77022 ], [ -80.43931, 32.76588 ], [ -80.44522, 32.76535 ], [ -80.44749, 32.76271 ], [ -80.44958, 32.75725 ], [ -80.44794, 32.74844 ], [ -80.45355, 32.7405 ], [ -80.44715, 32.72838 ], [ -80.42956, 32.72039 ], [ -80.43514, 32.71614 ], [ -80.43541, 32.71313 ], [ -80.43082, 32.71216 ], [ -80.42609, 32.71589 ], [ -80.42278, 32.71459 ], [ -80.42345, 32.71022 ], [ -80.41589, 32.69474 ], [ -80.42266, 32.68847 ], [ -80.41787, 32.68069 ], [ -80.42091, 32.67006 ], [ -80.40492, 32.65241 ], [ -80.39134, 32.65523 ], [ -80.38901, 32.65228 ], [ -80.39145, 32.64717 ], [ -80.39583, 32.64597 ], [ -80.40236, 32.63952 ], [ -80.40754, 32.62708 ], [ -80.42265, 32.62736 ], [ -80.42803, 32.62386 ], [ -80.42599, 32.61149 ], [ -80.42041, 32.60421 ], [ -80.39914, 32.61826 ], [ -80.39157, 32.61935 ], [ -80.38719, 32.61513 ], [ -80.3972, 32.59186 ], [ -80.38949, 32.57523 ], [ -80.39075, 32.56864 ], [ -80.39571, 32.56169 ], [ -80.4123, 32.55686 ], [ -80.41533, 32.54794 ], [ -80.40639, 32.54082 ], [ -80.38005, 32.53176 ], [ -80.35282, 32.50019 ], [ -80.3354, 32.49285 ], [ -80.32645, 32.49379 ], [ -80.32423, 32.50287 ], [ -80.3303, 32.50658 ], [ -80.33302, 32.5125 ], [ -80.35003, 32.51878 ], [ -80.34855, 32.52526 ], [ -80.33902, 32.52306 ], [ -80.33594, 32.52396 ], [ -80.33729, 32.52613 ], [ -80.33541, 32.52658 ], [ -80.33111, 32.52284 ], [ -80.32716, 32.52439 ], [ -80.321, 32.52306 ], [ -80.32021, 32.51972 ], [ -80.31827, 32.52001 ], [ -80.32058, 32.51325 ], [ -80.31913, 32.51108 ], [ -80.28509, 32.52995 ], [ -80.27726, 32.52383 ], [ -80.27184, 32.52628 ], [ -80.27164, 32.52842 ], [ -80.269, 32.52681 ], [ -80.26513, 32.52843 ], [ -80.26475, 32.53301 ], [ -80.26015, 32.53319 ], [ -80.26052, 32.53686 ], [ -80.25636, 32.53679 ], [ -80.25624, 32.53173 ], [ -80.25408, 32.53229 ], [ -80.27736, 32.51802 ], [ -80.33244, 32.4781 ], [ -80.33835, 32.47873 ], [ -80.34674, 32.4945 ], [ -80.36041, 32.49981 ], [ -80.37063, 32.48758 ], [ -80.37598, 32.48798 ], [ -80.38774, 32.48297 ], [ -80.39256, 32.47533 ], [ -80.41349, 32.47067 ], [ -80.41912, 32.47896 ], [ -80.4186, 32.4895 ], [ -80.42156, 32.49484 ], [ -80.43092, 32.50091 ], [ -80.44407, 32.50492 ], [ -80.45465, 32.50352 ], [ -80.45762, 32.49951 ], [ -80.46309, 32.49781 ], [ -80.47207, 32.49696 ], [ -80.47704, 32.48545 ], [ -80.50294, 32.49565 ], [ -80.51776, 32.51914 ], [ -80.52972, 32.52275 ], [ -80.53648, 32.52922 ], [ -80.54109, 32.54548 ], [ -80.5515, 32.56577 ], [ -80.5574, 32.5662 ], [ -80.55894, 32.55521 ], [ -80.56244, 32.55096 ], [ -80.56602, 32.55094 ], [ -80.56843, 32.55656 ], [ -80.56522, 32.56549 ], [ -80.57655, 32.56507 ], [ -80.58421, 32.56773 ], [ -80.57617, 32.57776 ], [ -80.57595, 32.58106 ], [ -80.57984, 32.58427 ], [ -80.58636, 32.58617 ], [ -80.59979, 32.58105 ], [ -80.60322, 32.58178 ], [ -80.60723, 32.58916 ], [ -80.60991, 32.59003 ], [ -80.62088, 32.5812 ], [ -80.62738, 32.58409 ], [ -80.63084, 32.59172 ], [ -80.64783, 32.59637 ], [ -80.66066, 32.61514 ], [ -80.65515, 32.62217 ], [ -80.6544, 32.62688 ], [ -80.65975, 32.62812 ], [ -80.66996, 32.62246 ], [ -80.67515, 32.62518 ], [ -80.67396, 32.63291 ], [ -80.65864, 32.63512 ], [ -80.66069, 32.64328 ], [ -80.66645, 32.6457 ], [ -80.67823, 32.64267 ], [ -80.68449, 32.65461 ], [ -80.68434, 32.659 ], [ -80.68053, 32.66285 ], [ -80.67106, 32.66164 ], [ -80.66885, 32.66357 ], [ -80.66814, 32.66749 ], [ -80.67115, 32.67164 ], [ -80.68587, 32.67281 ], [ -80.69004, 32.66727 ], [ -80.70333, 32.66459 ], [ -80.7065, 32.67324 ], [ -80.71558, 32.67315 ], [ -80.71835, 32.6795 ], [ -80.72162, 32.68024 ], [ -80.72853, 32.67366 ], [ -80.73341, 32.6808 ], [ -80.73924, 32.6823 ], [ -80.74489, 32.67423 ], [ -80.75317, 32.67438 ], [ -80.75973, 32.67956 ], [ -80.76562, 32.67527 ], [ -80.76863, 32.68148 ], [ -80.77266, 32.67624 ], [ -80.77782, 32.68073 ], [ -80.77618, 32.68458 ], [ -80.77831, 32.68692 ], [ -80.78086, 32.68564 ], [ -80.78126, 32.68179 ], [ -80.78382, 32.68402 ], [ -80.78726, 32.68248 ], [ -80.78748, 32.68822 ], [ -80.79025, 32.68491 ], [ -80.79245, 32.68797 ], [ -80.7947, 32.68617 ], [ -80.79656, 32.68837 ], [ -80.80003, 32.68686 ], [ -80.8025, 32.69091 ], [ -80.80788, 32.68944 ], [ -80.80924, 32.69268 ], [ -80.80735, 32.69395 ], [ -80.81136, 32.69743 ], [ -80.81301, 32.69503 ], [ -80.81819, 32.69848 ], [ -80.82273, 32.6969 ], [ -80.82156, 32.69893 ], [ -80.82529, 32.70003 ], [ -80.8245, 32.70277 ], [ -80.82873, 32.70884 ], [ -80.84562, 32.72084 ], [ -80.85127, 32.74241 ], [ -80.85412, 32.74867 ], [ -80.85644, 32.74812 ], [ -80.85669, 32.75114 ], [ -80.85972, 32.75258 ], [ -80.86079, 32.75948 ], [ -80.86361, 32.76142 ], [ -80.8622, 32.76417 ], [ -80.86597, 32.76944 ], [ -80.86619, 32.77558 ], [ -80.8692, 32.77705 ], [ -80.87344, 32.78731 ], [ -80.87917, 32.79064 ], [ -80.88326, 32.79821 ], [ -80.89578, 32.81058 ], [ -80.90006, 32.83263 ], [ -80.91092, 32.84404 ], [ -80.9146, 32.84452 ], [ -80.91742, 32.85234 ], [ -80.92808, 32.85816 ], [ -80.93116, 32.8649 ], [ -80.93785, 32.86706 ], [ -80.94554, 32.87636 ], [ -80.94933, 32.87507 ], [ -80.95883, 32.87668 ], [ -80.96847, 32.89057 ], [ -80.97651, 32.89723 ], [ -80.98721, 32.90107 ], [ -80.98997, 32.91338 ], [ -80.99472, 32.91746 ], [ -80.99709, 32.92625 ], [ -81.00028, 32.92844 ], [ -80.99934, 32.93125 ], [ -81.00956, 32.94013 ], [ -81.01346, 32.95484 ], [ -81.01905, 32.95878 ], [ -81.02059, 32.96396 ], [ -81.02702, 32.9665 ], [ -81.02963, 32.97391 ], [ -81.04453, 32.98562 ], [ -81.05326, 32.98956 ], [ -81.0555, 32.99429 ], [ -81.05426, 32.99955 ], [ -81.06355, 33.00697 ], [ -81.06466, 33.01361 ], [ -81.07856, 33.02117 ], [ -81.08229, 33.02663 ] ] ] } },
{ "type": "Feature", "properties": { "name": "Jasper" }, "geometry": { "type": "Polygon", "coordinates": [ [ [ -81.2813, 32.55644 ], [ -81.22258, 32.60382 ], [ -81.20721, 32.61053 ], [ -81.15766, 32.64575 ], [ -81.01462, 32.75306 ], [ -81.0123, 32.74624 ], [ -81.00291, 32.73984 ], [ -80.99534, 32.73055 ], [ -80.9765, 32.72089 ], [ -80.97582, 32.71435 ], [ -80.96803, 32.70407 ], [ -80.96478, 32.69513 ], [ -80.95871, 32.69477 ], [ -80.95494, 32.69019 ], [ -80.95053, 32.69065 ], [ -80.94586, 32.68735 ], [ -80.94611, 32.67223 ], [ -80.95003, 32.66148 ], [ -80.96295, 32.65224 ], [ -80.95867, 32.64251 ], [ -80.92904, 32.63632 ], [ -80.91832, 32.62638 ], [ -80.90939, 32.62545 ], [ -80.90245, 32.62156 ], [ -80.8697, 32.66094 ], [ -80.8634, 32.64621 ], [ -80.85465, 32.63609 ], [ -80.85608, 32.63476 ], [ -80.8549, 32.63335 ], [ -80.85308, 32.63481 ], [ -80.85235, 32.63222 ], [ -80.8483, 32.63255 ], [ -80.84943, 32.6302 ], [ -80.84584, 32.62513 ], [ -80.84994, 32.61652 ], [ -80.83655, 32.60884 ], [ -80.83559, 32.59928 ], [ -80.83154, 32.59339 ], [ -80.836, 32.57877 ], [ -80.83508, 32.56419 ], [ -80.83921, 32.55751 ], [ -80.83598, 32.54404 ], [ -80.83785, 32.53928 ], [ -80.84773, 32.53006 ], [ -80.83601, 32.51816 ], [ -80.82023, 32.49079 ], [ -80.81773, 32.46569 ], [ -80.81869, 32.46393 ], [ -80.83017, 32.46209 ], [ -80.83393, 32.45689 ], [ -80.84773, 32.42899 ], [ -80.8502, 32.41631 ], [ -80.84797, 32.41164 ], [ -80.83765, 32.41504 ], [ -80.82924, 32.41147 ], [ -80.84233, 32.39469 ], [ -80.84194, 32.3849 ], [ -80.84785, 32.38394 ], [ -80.85056, 32.37936 ], [ -80.85881, 32.3797 ], [ -80.86151, 32.37351 ], [ -80.87372, 32.36906 ], [ -80.86849, 32.36373 ], [ -80.87434, 32.35923 ], [ -80.87759, 32.3459 ], [ -80.89088, 32.34754 ], [ -80.89205, 32.35373 ], [ -80.91058, 32.35425 ], [ -80.92446, 32.35029 ], [ -80.92791, 32.3431 ], [ -80.92878, 32.3313 ], [ -80.93412, 32.32115 ], [ -80.93494, 32.30011 ], [ -80.98167, 32.30587 ], [ -81.00637, 32.30652 ], [ -81.00443, 32.3008 ], [ -80.99866, 32.29804 ], [ -80.99421, 32.29056 ], [ -80.99754, 32.28133 ], [ -80.99168, 32.26755 ], [ -80.99413, 32.26752 ], [ -80.99565, 32.262 ], [ -81.00493, 32.25069 ], [ -81.01039, 32.24985 ], [ -81.01611, 32.24429 ], [ -81.01245, 32.23623 ], [ -81.01432, 32.23096 ], [ -81.01237, 32.21823 ], [ -81.00756, 32.21909 ], [ -81.00961, 32.21668 ], [ -81.00902, 32.21481 ], [ -81.00615, 32.21587 ], [ -81.00658, 32.21319 ], [ -81.00996, 32.21341 ], [ -81.00596, 32.21146 ], [ -81.00395, 32.20649 ], [ -81.00055, 32.20692 ], [ -80.99824, 32.2046 ], [ -80.99614, 32.2006 ], [ -80.99757, 32.19808 ], [ -80.99423, 32.19738 ], [ -81.00014, 32.19612 ], [ -80.99044, 32.19023 ], [ -80.99381, 32.18796 ], [ -80.98846, 32.1897 ], [ -80.98693, 32.19337 ], [ -80.98518, 32.18856 ], [ -80.98005, 32.19043 ], [ -80.97659, 32.18526 ], [ -80.97109, 32.18552 ], [ -80.9689, 32.1831 ], [ -80.96239, 32.18496 ], [ -80.96207, 32.18206 ], [ -80.96858, 32.18026 ], [ -80.96932, 32.17621 ], [ -80.96182, 32.17947 ], [ -80.96023, 32.17395 ], [ -80.95411, 32.17536 ], [ -80.94859, 32.16908 ], [ -80.94842, 32.16739 ], [ -80.95762, 32.16504 ], [ -80.95051, 32.16126 ], [ -80.95033, 32.15649 ], [ -80.95435, 32.14892 ], [ -80.95096, 32.14542 ], [ -80.95302, 32.14155 ], [ -80.95954, 32.14597 ], [ -80.96102, 32.15188 ], [ -80.96494, 32.15177 ], [ -80.96896, 32.14767 ], [ -80.96725, 32.14073 ], [ -80.958, 32.13773 ], [ -80.9619, 32.13325 ], [ -80.96147, 32.12622 ], [ -80.95344, 32.13156 ], [ -80.94691, 32.12885 ], [ -80.94132, 32.13733 ], [ -80.93405, 32.13507 ], [ -80.92853, 32.13858 ], [ -80.92496, 32.13108 ], [ -80.92116, 32.13005 ], [ -80.91506, 32.13484 ], [ -80.90946, 32.13474 ], [ -80.90725, 32.13101 ], [ -80.91262, 32.1276 ], [ -80.92677, 32.12403 ], [ -80.92831, 32.12141 ], [ -80.92693, 32.11945 ], [ -80.90057, 32.11162 ], [ -80.89566, 32.1077 ], [ -80.8966, 32.10254 ], [ -80.9117, 32.0854 ], [ -80.91054, 32.07992 ], [ -80.9038, 32.07689 ], [ -80.89113, 32.08141 ], [ -80.87931, 32.08103 ], [ -80.88319, 32.08008 ], [ -80.88663, 32.07193 ], [ -80.89982, 32.05602 ], [ -80.90752, 32.05094 ], [ -80.90804, 32.0483 ], [ -80.90169, 32.0427 ], [ -80.89446, 32.04509 ], [ -80.88867, 32.0399 ], [ -80.88951, 32.03759 ], [ -80.90402, 32.03995 ], [ -80.90766, 32.03815 ], [ -80.92508, 32.04194 ], [ -80.95388, 32.07014 ], [ -80.98351, 32.07955 ], [ -80.99214, 32.09492 ], [ -81.00431, 32.10237 ], [ -81.01102, 32.10205 ], [ -81.01735, 32.09879 ], [ -81.02626, 32.08813 ], [ -81.03812, 32.08373 ], [ -81.05955, 32.08862 ], [ -81.07431, 32.09738 ], [ -81.08827, 32.09993 ], [ -81.08697, 32.10397 ], [ -81.09125, 32.11089 ], [ -81.1067, 32.1097 ], [ -81.11537, 32.11471 ], [ -81.11723, 32.1198 ], [ -81.11524, 32.1255 ], [ -81.11994, 32.134 ], [ -81.11833, 32.1444 ], [ -81.11224, 32.1508 ], [ -81.12112, 32.1545 ], [ -81.12203, 32.1618 ], [ -81.12975, 32.16593 ], [ -81.12119, 32.17492 ], [ -81.11775, 32.17116 ], [ -81.11113, 32.1727 ], [ -81.11193, 32.178 ], [ -81.11638, 32.17617 ], [ -81.12045, 32.17829 ], [ -81.11823, 32.1892 ], [ -81.12158, 32.1922 ], [ -81.11402, 32.19545 ], [ -81.12206, 32.1955 ], [ -81.12315, 32.20133 ], [ -81.12828, 32.20863 ], [ -81.13673, 32.21367 ], [ -81.13844, 32.21926 ], [ -81.14314, 32.22173 ], [ -81.15215, 32.22232 ], [ -81.14481, 32.22599 ], [ -81.14363, 32.22927 ], [ -81.15238, 32.2363 ], [ -81.15659, 32.24391 ], [ -81.14573, 32.25152 ], [ -81.14833, 32.2551 ], [ -81.14473, 32.25877 ], [ -81.1466, 32.26277 ], [ -81.13693, 32.26611 ], [ -81.14193, 32.27174 ], [ -81.13558, 32.27247 ], [ -81.13349, 32.2698 ], [ -81.13, 32.2758 ], [ -81.12342, 32.27505 ], [ -81.12696, 32.2827 ], [ -81.11987, 32.2862 ], [ -81.12392, 32.29641 ], [ -81.12293, 32.30729 ], [ -81.12498, 32.30916 ], [ -81.12778, 32.30722 ], [ -81.13305, 32.30901 ], [ -81.12975, 32.31397 ], [ -81.13065, 32.32541 ], [ -81.13629, 32.325 ], [ -81.13793, 32.32866 ], [ -81.12896, 32.33645 ], [ -81.12944, 32.34155 ], [ -81.13401, 32.34121 ], [ -81.14379, 32.35153 ], [ -81.14732, 32.35013 ], [ -81.14598, 32.34502 ], [ -81.15983, 32.33996 ], [ -81.15983, 32.34298 ], [ -81.15505, 32.34416 ], [ -81.15484, 32.34956 ], [ -81.1601, 32.34895 ], [ -81.161, 32.35591 ], [ -81.16712, 32.35872 ], [ -81.16712, 32.36104 ], [ -81.17382, 32.36271 ], [ -81.169, 32.36512 ], [ -81.16791, 32.3683 ], [ -81.18184, 32.37935 ], [ -81.17732, 32.38978 ], [ -81.17871, 32.39364 ], [ -81.20551, 32.42361 ], [ -81.20844, 32.437 ], [ -81.19964, 32.44159 ], [ -81.19943, 32.44419 ], [ -81.20667, 32.44809 ], [ -81.2045, 32.45278 ], [ -81.19749, 32.44914 ], [ -81.19797, 32.45388 ], [ -81.19224, 32.45364 ], [ -81.19373, 32.45968 ], [ -81.18695, 32.46357 ], [ -81.20003, 32.46798 ], [ -81.23359, 32.49849 ], [ -81.23425, 32.50275 ], [ -81.23868, 32.50698 ], [ -81.23841, 32.51019 ], [ -81.23215, 32.51334 ], [ -81.23342, 32.51796 ], [ -81.2402, 32.51637 ], [ -81.2448, 32.52054 ], [ -81.25288, 32.51833 ], [ -81.2799, 32.53659 ], [ -81.27624, 32.53856 ], [ -81.27496, 32.54482 ], [ -81.28073, 32.54764 ], [ -81.27876, 32.55234 ], [ -81.2813, 32.55644 ] ] ] } },
{ "type": "Feature", "properties": { "name": "Charleston" }, "geometry": { "type": "MultiPolygon", "coordinates": [ [ [ [ -79.50795, 33.02008 ], [ -79.50237, 33.02058 ], [ -79.50097, 33.01819 ], [ -79.50311, 33.01756 ], [ -79.50795, 33.02008 ] ] ], [ [ [ -79.55361, 32.99039 ], [ -79.54873, 32.99298 ], [ -79.54522, 32.99071 ], [ -79.55218, 32.98879 ], [ -79.55361, 32.99039 ] ] ], [ [ [ -80.18632, 32.55302 ], [ -80.18449, 32.55358 ], [ -80.17715, 32.54826 ], [ -80.18205, 32.54722 ], [ -80.18632, 32.55302 ] ] ], [ [ [ -80.45355, 32.7405 ], [ -80.44794, 32.74844 ], [ -80.44958, 32.75725 ], [ -80.44749, 32.76271 ], [ -80.44522, 32.76535 ], [ -80.43931, 32.76588 ], [ -80.43658, 32.77022 ], [ -80.43848, 32.77274 ], [ -80.43293, 32.77848 ], [ -80.43223, 32.78326 ], [ -80.43581, 32.78819 ], [ -80.42616, 32.79793 ], [ -80.42108, 32.79838 ], [ -80.41828, 32.80514 ], [ -80.41475, 32.80256 ], [ -80.41409, 32.80884 ], [ -80.40992, 32.80654 ], [ -80.41118, 32.809 ], [ -80.40541, 32.81497 ], [ -80.4044, 32.8226 ], [ -80.39572, 32.84025 ], [ -80.39717, 32.84199 ], [ -80.39414, 32.8445 ], [ -80.39943, 32.84574 ], [ -80.40132, 32.85853 ], [ -80.30169, 32.8519 ], [ -80.2764, 32.84363 ], [ -80.15771, 32.81821 ], [ -80.14925, 32.81819 ], [ -80.15864, 32.83012 ], [ -80.1608, 32.84092 ], [ -80.18374, 32.84707 ], [ -80.1869, 32.852 ], [ -80.1857, 32.86081 ], [ -80.17674, 32.86707 ], [ -80.16349, 32.85454 ], [ -80.1613, 32.8559 ], [ -80.15492, 32.86505 ], [ -80.16218, 32.87461 ], [ -80.14966, 32.87886 ], [ -80.14479, 32.88756 ], [ -80.13662, 32.88772 ], [ -80.13768, 32.88374 ], [ -80.12803, 32.88822 ], [ -80.12778, 32.8902 ], [ -80.12544, 32.88964 ], [ -80.12279, 32.90177 ], [ -80.11824, 32.90115 ], [ -80.11947, 32.89363 ], [ -80.1137, 32.89175 ], [ -80.10233, 32.89314 ], [ -80.09766, 32.88696 ], [ -80.0798, 32.92819 ], [ -80.14135, 32.97921 ], [ -80.13924, 32.98178 ], [ -80.13065, 32.97901 ], [ -80.12543, 32.98233 ], [ -80.11054, 32.98549 ], [ -80.13555, 32.99889 ], [ -80.14599, 32.98438 ], [ -80.16755, 33.00266 ], [ -80.16259, 33.0105 ], [ -80.16635, 33.01266 ], [ -80.16995, 33.00435 ], [ -80.17623, 33.01002 ], [ -80.16983, 33.01545 ], [ -80.16446, 33.01282 ], [ -80.16019, 33.01761 ], [ -80.16349, 33.01937 ], [ -80.16073, 33.02077 ], [ -80.15398, 33.0181 ], [ -80.14925, 33.0216 ], [ -80.11336, 32.99806 ], [ -80.11043, 33.00216 ], [ -80.10803, 32.99976 ], [ -80.10271, 33.00132 ], [ -80.10492, 32.99601 ], [ -80.10241, 32.99553 ], [ -80.10507, 32.99249 ], [ -80.09822, 32.98811 ], [ -80.05602, 32.99936 ], [ -80.04583, 32.98503 ], [ -80.04006, 32.98275 ], [ -80.04149, 32.95501 ], [ -80.01177, 32.89988 ], [ -79.9511, 32.91021 ], [ -79.94743, 32.90765 ], [ -79.96112, 32.89446 ], [ -79.96476, 32.88282 ], [ -79.964, 32.87435 ], [ -79.95945, 32.86363 ], [ -79.95396, 32.85794 ], [ -79.93925, 32.85453 ], [ -79.93142, 32.84982 ], [ -79.93043, 32.82635 ], [ -79.9192, 32.81899 ], [ -79.91431, 32.81889 ], [ -79.90186, 32.82525 ], [ -79.89625, 32.83115 ], [ -79.89515, 32.84312 ], [ -79.89848, 32.85515 ], [ -79.89619, 32.86002 ], [ -79.88539, 32.86577 ], [ -79.85908, 32.87096 ], [ -79.85296, 32.8761 ], [ -79.84189, 32.89676 ], [ -79.83956, 32.90462 ], [ -79.84057, 32.91273 ], [ -79.83707, 32.91821 ], [ -79.82577, 32.91828 ], [ -79.81485, 32.92696 ], [ -79.80387, 32.92875 ], [ -79.78139, 32.94378 ], [ -79.77163, 32.94185 ], [ -79.76767, 32.95486 ], [ -79.76345, 32.95634 ], [ -79.7693, 32.97157 ], [ -79.76211, 32.98909 ], [ -79.74304, 33.00538 ], [ -79.7303, 33.01264 ], [ -79.7164, 33.03856 ], [ -79.70303, 33.04593 ], [ -79.69867, 33.05499 ], [ -79.67466, 33.08046 ], [ -79.6605, 33.09083 ], [ -79.64233, 33.12439 ], [ -79.63431, 33.12903 ], [ -79.62804, 33.12888 ], [ -79.62091, 33.13598 ], [ -79.61251, 33.13832 ], [ -79.60909, 33.13312 ], [ -79.59987, 33.13401 ], [ -79.59552, 33.14337 ], [ -79.57139, 33.14986 ], [ -79.56046, 33.1564 ], [ -79.54996, 33.15562 ], [ -79.53395, 33.14403 ], [ -79.52196, 33.1467 ], [ -79.51205, 33.15808 ], [ -79.513, 33.16616 ], [ -79.50391, 33.17295 ], [ -79.50446, 33.17705 ], [ -79.49754, 33.17699 ], [ -79.49282, 33.19182 ], [ -79.49088, 33.19372 ], [ -79.48637, 33.19237 ], [ -79.48257, 33.19835 ], [ -79.48367, 33.20381 ], [ -79.47796, 33.20302 ], [ -79.47729, 33.20887 ], [ -79.47097, 33.2104 ], [ -79.46779, 33.20654 ], [ -79.46661, 33.20918 ], [ -79.46244, 33.2075 ], [ -79.45885, 33.21035 ], [ -79.45029, 33.20733 ], [ -79.4467, 33.21346 ], [ -79.43775, 33.21524 ], [ -79.42748, 33.20978 ], [ -79.42298, 33.20277 ], [ -79.41434, 33.19901 ], [ -79.40403, 33.18378 ], [ -79.3944, 33.17804 ], [ -79.38345, 33.17516 ], [ -79.37371, 33.16649 ], [ -79.35789, 33.15933 ], [ -79.35129, 33.15352 ], [ -79.33207, 33.15269 ], [ -79.31509, 33.14572 ], [ -79.29125, 33.14656 ], [ -79.27508, 33.14116 ], [ -79.26876, 33.13604 ], [ -79.26841, 33.13031 ], [ -79.27558, 33.11677 ], [ -79.31606, 33.09923 ], [ -79.32816, 33.09041 ], [ -79.34149, 33.05382 ], [ -79.3598, 33.01965 ], [ -79.36229, 33.00909 ], [ -79.41652, 33.00682 ], [ -79.42314, 33.01018 ], [ -79.40108, 33.01118 ], [ -79.40065, 33.01751 ], [ -79.40442, 33.01962 ], [ -79.40729, 33.01445 ], [ -79.41636, 33.01612 ], [ -79.48327, 33.00979 ], [ -79.50407, 33.02742 ], [ -79.50692, 33.03281 ], [ -79.52522, 33.03729 ], [ -79.53211, 33.03519 ], [ -79.53497, 33.02847 ], [ -79.54532, 33.02654 ], [ -79.57111, 33.01381 ], [ -79.58073, 33.00645 ], [ -79.58659, 32.99133 ], [ -79.60102, 32.97928 ], [ -79.60662, 32.97225 ], [ -79.60622, 32.96559 ], [ -79.61761, 32.95273 ], [ -79.61772, 32.94487 ], [ -79.60753, 32.92623 ], [ -79.58981, 32.92453 ], [ -79.58315, 32.93088 ], [ -79.57577, 32.9338 ], [ -79.57409, 32.93251 ], [ -79.57461, 32.92112 ], [ -79.58106, 32.90642 ], [ -79.63115, 32.88861 ], [ -79.64666, 32.87605 ], [ -79.65593, 32.87588 ], [ -79.69812, 32.85132 ], [ -79.70379, 32.83602 ], [ -79.71988, 32.8258 ], [ -79.71807, 32.81698 ], [ -79.72639, 32.806 ], [ -79.78757, 32.78447 ], [ -79.80504, 32.77509 ], [ -79.81398, 32.77482 ], [ -79.81451, 32.77045 ], [ -79.82397, 32.76273 ], [ -79.8488, 32.75363 ], [ -79.8547, 32.75488 ], [ -79.86271, 32.76153 ], [ -79.86639, 32.76602 ], [ -79.86342, 32.77102 ], [ -79.86544, 32.77492 ], [ -79.87804, 32.78571 ], [ -79.886, 32.78791 ], [ -79.9232, 32.78181 ], [ -79.92439, 32.77502 ], [ -79.92878, 32.76912 ], [ -79.92855, 32.75423 ], [ -79.91797, 32.75443 ], [ -79.90109, 32.75103 ], [ -79.89907, 32.75333 ], [ -79.89634, 32.74954 ], [ -79.87911, 32.75083 ], [ -79.87093, 32.74243 ], [ -79.87015, 32.73 ], [ -79.88709, 32.70195 ], [ -79.88802, 32.68765 ], [ -79.88558, 32.68487 ], [ -79.91568, 32.66492 ], [ -79.97002, 32.64052 ], [ -79.9743, 32.64102 ], [ -79.98692, 32.62639 ], [ -79.99224, 32.611 ], [ -80.0008, 32.60589 ], [ -80.01696, 32.6104 ], [ -80.03728, 32.61024 ], [ -80.09807, 32.59828 ], [ -80.12137, 32.59052 ], [ -80.14541, 32.57813 ], [ -80.15568, 32.57198 ], [ -80.16655, 32.56022 ], [ -80.19499, 32.56003 ], [ -80.23678, 32.54232 ], [ -80.25408, 32.53229 ], [ -80.25624, 32.53173 ], [ -80.25636, 32.53679 ], [ -80.26052, 32.53686 ], [ -80.26015, 32.53319 ], [ -80.26475, 32.53301 ], [ -80.26513, 32.52843 ], [ -80.269, 32.52681 ], [ -80.27164, 32.52842 ], [ -80.27485, 32.52446 ], [ -80.27971, 32.52463 ], [ -80.28509, 32.52995 ], [ -80.31913, 32.51108 ], [ -80.32058, 32.51325 ], [ -80.31827, 32.52001 ], [ -80.32021, 32.51972 ], [ -80.321, 32.52306 ], [ -80.32716, 32.52439 ], [ -80.33111, 32.52284 ], [ -80.33541, 32.52658 ], [ -80.33729, 32.52613 ], [ -80.33594, 32.52396 ], [ -80.33902, 32.52306 ], [ -80.34855, 32.52526 ], [ -80.35003, 32.51878 ], [ -80.33302, 32.5125 ], [ -80.3303, 32.50658 ], [ -80.32423, 32.50287 ], [ -80.32709, 32.49334 ], [ -80.3354, 32.49285 ], [ -80.3506, 32.4987 ], [ -80.38005, 32.53176 ], [ -80.40639, 32.54082 ], [ -80.41488, 32.54648 ], [ -80.41528, 32.55197 ], [ -80.4123, 32.55686 ], [ -80.39571, 32.56169 ], [ -80.39075, 32.56864 ], [ -80.38949, 32.57523 ], [ -80.3972, 32.59186 ], [ -80.38719, 32.61513 ], [ -80.39157, 32.61935 ], [ -80.39914, 32.61826 ], [ -80.42041, 32.60421 ], [ -80.42599, 32.61149 ], [ -80.42803, 32.62386 ], [ -80.42265, 32.62736 ], [ -80.40754, 32.62708 ], [ -80.40236, 32.63952 ], [ -80.39583, 32.64597 ], [ -80.39145, 32.64717 ], [ -80.38901, 32.65228 ], [ -80.39134, 32.65523 ], [ -80.40492, 32.65241 ], [ -80.42091, 32.67006 ], [ -80.41787, 32.68069 ], [ -80.42266, 32.68847 ], [ -80.41589, 32.69474 ], [ -80.42345, 32.71022 ], [ -80.42278, 32.71459 ], [ -80.42609, 32.71589 ], [ -80.43082, 32.71216 ], [ -80.43541, 32.71313 ], [ -80.43514, 32.71614 ], [ -80.42956, 32.72039 ], [ -80.44715, 32.72838 ], [ -80.45355, 32.7405 ] ] ] ] } },
{ "type": "Feature", "properties": { "name": "Dorchester" }, "geometry": { "type": "Polygon", "coordinates": [ [ [ -80.79197, 33.17617 ], [ -80.7903, 33.18084 ], [ -80.50279, 33.3345 ], [ -80.49467, 33.32381 ], [ -80.49396, 33.29754 ], [ -80.48458, 33.28003 ], [ -80.47561, 33.27485 ], [ -80.46228, 33.27067 ], [ -80.45168, 33.27066 ], [ -80.44116, 33.2624 ], [ -80.42709, 33.25776 ], [ -80.39187, 33.26456 ], [ -80.3643, 33.25856 ], [ -80.34841, 33.24892 ], [ -80.34686, 33.23608 ], [ -80.3354, 33.22449 ], [ -80.33646, 33.21538 ], [ -80.33082, 33.19842 ], [ -80.32469, 33.19852 ], [ -80.3088, 33.19043 ], [ -80.30853, 33.18784 ], [ -80.29635, 33.17945 ], [ -80.31096, 33.15835 ], [ -80.31763, 33.15705 ], [ -80.31815, 33.1549 ], [ -80.33594, 33.14546 ], [ -80.14925, 33.0216 ], [ -80.15398, 33.0181 ], [ -80.16073, 33.02077 ], [ -80.16349, 33.01937 ], [ -80.16019, 33.01761 ], [ -80.16446, 33.01282 ], [ -80.16983, 33.01545 ], [ -80.17623, 33.01002 ], [ -80.16995, 33.00435 ], [ -80.16635, 33.01266 ], [ -80.16259, 33.0105 ], [ -80.16755, 33.00266 ], [ -80.14599, 32.98438 ], [ -80.13555, 32.99889 ], [ -80.11054, 32.98549 ], [ -80.12543, 32.98233 ], [ -80.13065, 32.97901 ], [ -80.13924, 32.98178 ], [ -80.14135, 32.97921 ], [ -80.0798, 32.92819 ], [ -80.09766, 32.88696 ], [ -80.10233, 32.89314 ], [ -80.1137, 32.89175 ], [ -80.11947, 32.89363 ], [ -80.11824, 32.90115 ], [ -80.12279, 32.90177 ], [ -80.12544, 32.88964 ], [ -80.12778, 32.8902 ], [ -80.12803, 32.88822 ], [ -80.13768, 32.88374 ], [ -80.13662, 32.88772 ], [ -80.14479, 32.88756 ], [ -80.14966, 32.87886 ], [ -80.16218, 32.87461 ], [ -80.15492, 32.86505 ], [ -80.1613, 32.8559 ], [ -80.16349, 32.85454 ], [ -80.17674, 32.86707 ], [ -80.1857, 32.86081 ], [ -80.1869, 32.852 ], [ -80.18374, 32.84707 ], [ -80.1608, 32.84092 ], [ -80.15864, 32.83012 ], [ -80.14925, 32.81819 ], [ -80.15771, 32.81821 ], [ -80.2764, 32.84363 ], [ -80.30169, 32.8519 ], [ -80.40132, 32.85853 ], [ -80.3993, 32.86445 ], [ -80.40263, 32.86587 ], [ -80.40326, 32.86964 ], [ -80.39923, 32.87321 ], [ -80.39887, 32.87778 ], [ -80.39443, 32.87968 ], [ -80.3962, 32.88305 ], [ -80.38534, 32.88612 ], [ -80.39308, 32.89233 ], [ -80.39148, 32.8946 ], [ -80.39289, 32.89596 ], [ -80.39292, 32.89415 ], [ -80.39746, 32.89385 ], [ -80.39526, 32.89713 ], [ -80.39726, 32.90077 ], [ -80.40123, 32.90034 ], [ -80.4021, 32.90774 ], [ -80.40645, 32.91023 ], [ -80.39836, 32.9269 ], [ -80.39941, 32.93604 ], [ -80.40279, 32.9414 ], [ -80.40261, 32.94699 ], [ -80.40733, 32.94605 ], [ -80.40522, 32.95513 ], [ -80.40771, 32.95529 ], [ -80.40764, 32.95271 ], [ -80.40919, 32.95814 ], [ -80.41142, 32.95768 ], [ -80.41881, 32.96726 ], [ -80.41367, 32.9715 ], [ -80.4152, 32.9732 ], [ -80.41791, 32.9713 ], [ -80.41865, 32.97535 ], [ -80.41367, 32.97906 ], [ -80.41427, 32.98417 ], [ -80.4087, 32.98461 ], [ -80.41231, 32.98603 ], [ -80.40927, 32.98997 ], [ -80.41079, 32.99352 ], [ -80.40585, 32.99984 ], [ -80.40785, 33.00458 ], [ -80.4038, 33.0084 ], [ -80.40692, 33.01035 ], [ -80.40648, 33.01901 ], [ -80.39557, 33.02437 ], [ -80.38782, 33.03284 ], [ -80.38969, 33.04299 ], [ -80.4007, 33.05278 ], [ -80.40312, 33.05308 ], [ -80.40427, 33.04943 ], [ -80.41202, 33.0466 ], [ -80.42187, 33.05492 ], [ -80.42475, 33.05148 ], [ -80.43738, 33.05322 ], [ -80.43996, 33.04901 ], [ -80.4423, 33.05173 ], [ -80.4408, 33.05327 ], [ -80.44459, 33.05579 ], [ -80.44891, 33.05455 ], [ -80.44788, 33.0581 ], [ -80.45207, 33.0622 ], [ -80.45174, 33.06023 ], [ -80.45552, 33.05899 ], [ -80.45958, 33.06374 ], [ -80.46151, 33.06229 ], [ -80.47479, 33.06439 ], [ -80.47541, 33.05995 ], [ -80.48959, 33.06198 ], [ -80.49117, 33.06379 ], [ -80.49683, 33.06317 ], [ -80.49459, 33.05967 ], [ -80.50968, 33.05726 ], [ -80.52038, 33.06204 ], [ -80.52606, 33.06118 ], [ -80.52834, 33.06339 ], [ -80.52731, 33.06631 ], [ -80.53201, 33.06965 ], [ -80.53832, 33.06996 ], [ -80.53977, 33.06813 ], [ -80.53783, 33.066 ], [ -80.54023, 33.06431 ], [ -80.54227, 33.06621 ], [ -80.54436, 33.06383 ], [ -80.54744, 33.06575 ], [ -80.54752, 33.06275 ], [ -80.5445, 33.06224 ], [ -80.5503, 33.05833 ], [ -80.55304, 33.05931 ], [ -80.55321, 33.06193 ], [ -80.55879, 33.05982 ], [ -80.56801, 33.06037 ], [ -80.57103, 33.05943 ], [ -80.57057, 33.05769 ], [ -80.57794, 33.06053 ], [ -80.57731, 33.05741 ], [ -80.59149, 33.05782 ], [ -80.60058, 33.06267 ], [ -80.6181, 33.06475 ], [ -80.62381, 33.06693 ], [ -80.62368, 33.06924 ], [ -80.62773, 33.06952 ], [ -80.62941, 33.07277 ], [ -80.62726, 33.07593 ], [ -80.63238, 33.07628 ], [ -80.63586, 33.08082 ], [ -80.64019, 33.08068 ], [ -80.65322, 33.09317 ], [ -80.65798, 33.09226 ], [ -80.66135, 33.09459 ], [ -80.65961, 33.0976 ], [ -80.67044, 33.10355 ], [ -80.67404, 33.10981 ], [ -80.6721, 33.11318 ], [ -80.67825, 33.11565 ], [ -80.67861, 33.12159 ], [ -80.68117, 33.12445 ], [ -80.68509, 33.12378 ], [ -80.68944, 33.1287 ], [ -80.69304, 33.1287 ], [ -80.68939, 33.13024 ], [ -80.6935, 33.13237 ], [ -80.69165, 33.13752 ], [ -80.70527, 33.14701 ], [ -80.70617, 33.1499 ], [ -80.70306, 33.15248 ], [ -80.70974, 33.15647 ], [ -80.71071, 33.15345 ], [ -80.71257, 33.15381 ], [ -80.71546, 33.16052 ], [ -80.72088, 33.16126 ], [ -80.73445, 33.17005 ], [ -80.74374, 33.16819 ], [ -80.7475, 33.17222 ], [ -80.74611, 33.17453 ], [ -80.75042, 33.17268 ], [ -80.75868, 33.17467 ], [ -80.75729, 33.17163 ], [ -80.76217, 33.17034 ], [ -80.765, 33.17461 ], [ -80.772, 33.17156 ], [ -80.77649, 33.17305 ], [ -80.77908, 33.17677 ], [ -80.78254, 33.17464 ], [ -80.79197, 33.17617 ] ] ] } }
]
}
